StoreNumber,OwnershipTypeCode,StreetAddress,City,PostalCode,Latitude,Longitude
8025-150267,Company Owned,66-11 Binmanji,Taga-cho,522-0342,35.218893,136.285237
1868-143565,Company Owned,62-2 Binmanji,Taga-cho,522-0342,35.218118,136.283394
65839-300113,Company Owned,1330-2 Takamiyacho,Hikone,522-0201,35.243607,136.252751
31179-106524,Company Owned,2-1-1 Banba,Hikone,522-0069,35.280694,136.244029
49481-261606,Company Owned,7-40 Yokaichi-kaminocho,Higashiomi,573-0022,35.113244,136.20356
31576-111635,Company Owned,2-3-11 Takakaicho-kita,Oumihachiman,523-0896,35.127366,136.105653
24942-239411,Company Owned,265 Kawasakicho,Nagahama,526-0846,35.393157,136.282439
19713-197785,Company Owned,1178-694 Sunayama Kuzushi,Ryuo-cho,520-2551,35.062132,136.100993
28997-252025,Company Owned,6005-1 Minakuchi Minakuchicho,Koka,528-0005,34.966568,136.164301
21199-209864,Company Owned,510-1 Nagafuke,Toin-cho,511-0255,35.063103,136.579278
31662-117265,Company Owned,2-100 Sotono,Ogaki,503-0933,35.336624,136.61384
31220-106786,Company Owned,111-1 Onakasinden,Kuwana,511-0947,35.080397,136.606584
61348-293718,Company Owned,6-80-21 Hayashimachi,Ogaki,503-8571,35.369882,136.6173
49619-270172,Company Owned,18 Komaizawacho,Kusatsu,525-0014,35.039673,135.962171
29664-254824,Company Owned,1569-2 Yamanoissikicho,Yokkaichi,512-0906,35.01866,136.590706
8017-150266,Company Owned,1491-2 Yamanoissikicho,Yokkaichi,512-0906,35.019133,136.593989
55186-289016,Company Owned,1-1-50 Shibukawa,Kusatsu,525-8515,35.022383,135.962571
30276-260966,Company Owned,1-23-1 Nishishibukawa,Kusatsu,525-0025,35.025436,135.959326
31022-105213,Company Owned,1-20-20 Kusatsu,Kusatsu,525-0034,35.015049,135.965775
47505-254610,Company Owned,72 chiyoda Fukujuchohongo,Hashima,501-6254,35.319201,136.683934
30173-33259,Company Owned,1-22 Shinnishikata,Kuwana,511-0863,35.072209,136.662491
16822-166985,Company Owned,1863-1 Tennokawahara Obiracho,Yokkaichi,512-0921,34.976406,136.589155
51358-278011,Licensed,2-3-1-1 Nojihigashi,Kusatsu,525-8520,34.989925,135.956868
30582-98004,Company Owned,1-3-31 Yasujima,Yokkaichi,510-0075,34.968108,136.617124
18025-180145,Company Owned,2-40 Tomisuharacho,Yokkaichi,510-8016,35.007414,136.657214
1834-139044,Company Owned,300 Shinhamacho,Kusatsu,525-0067,34.997662,135.918096
65327-299654,Company Owned,1-3-21 Hinagahigashi,Yokkaichi,510-0886,34.952108,136.611646
58925-293164,Company Owned,4-5-1 Tomarikoyanagicho,Yokkaichi,510-0883,34.938156,136.601235
62774-295398,Company Owned,8-1 Heisei,Kitagata-cho,501-0438,35.433599,136.678732
66172-300688,Company Owned,3-3-6 Yanaizucho Maruno,Gifu,501-6115,35.364517,136.727261
59571-292757,Company Owned,1-1 Nihonmatsu,Otsu,520-0021,35.029444,135.864008
31043-105207,Company Owned,1100 Mitsuhashi,Motosu,501-0497,35.454894,136.673451
30403-81163,Company Owned,4-1-2 Shonohayama,Suzuka,513-0834,34.871941,136.531754
55021-286003,Company Owned,77-1 Sakuragi Miyamaecho,Inazawa,492-8273,35.252943,136.777125
29764-255191,Company Owned,28-1 Hamagurida Otsubocho,Tsushima,496-0012,35.161652,136.775416
60747-293275,Company Owned,57 Junikami Zentashindencho,Aisai,496-0924,35.121179,136.766097
25068-239832,Company Owned,1-3 Kasugacho,Otsu,520-0055,35.003407,135.864488
16084-296751,Company Owned,368 Urayasu Nagashimacho,Kuwana,511-1135,35.029181,136.725702
49034-262444,Licensed,417-1 Sanjocho,Suzuka,513-0824,34.874401,136.552165
22040-217125,Company Owned,2-14-1 Akanabenose,Gifu,500-8283,35.376927,136.746333
60741-292315,Company Owned,131 Yonnotori Kisogawacho-stowariden,Ichinomiya,493-0007,35.33547,136.772325
30550-94562,Company Owned,25-1 Minamiyatsugaike Kisogawachokuroda,Ichinomiya,493-0001,35.349235,136.773832
47628-259072,Licensed,3-1-1 Sakae,Ichinomiya,491-0858,35.302946,136.796776
22390-220727,Licensed,1-10-1 Hashimotocho,Gifu,500-8856,35.409541,136.757704
1847-141685,Company Owned,2-3-8 Masakinaka,Gifu,502-0882,35.448947,136.742171
1866-143385,Company Owned,7-1-2 Nagano,Inazawa,492-8601,35.26087,136.8191
28476-250730,Company Owned,40-5 Tsukasamachi,Gifu,500-8076,35.427107,136.75962
21502-212624,Company Owned,1-2 Ryogocho,Ichinomiya,491-0022,35.310637,136.816475
57924-292057,Company Owned,3-1-12 Fuji,Ichinomiya,491-0024,35.302146,136.819503
30384-75100,Company Owned,5 Anshunakakoujicho Yamashina-ku,Kyoto,607-8013,34.992323,135.817038
9049-151885,Company Owned,1-61 Terashimahonchonishi,Tokushima,770-0831,34.074133,134.551418
62771-296749,Company Owned,2-1-8 Kitatamiya,Tokushima,770-0003,34.087076,134.54414
15927-162424,Company Owned,2-5 Okinohama,Tokushima,770-8052,34.052839,134.55267
49795-270178,Company Owned,4-1 Minamisuehirocho,Tokushima,770-0865,34.061485,134.573113
16425-165467,Company Owned,88-1 Higashinakazu Okuno,Aizumi-cho,771-1202,34.119514,134.500224
31228-106787,Company Owned,1750-1 Ikenobe,Miki-cho,761-0793,34.292147,134.12286
4178-147764,Company Owned,2084-5 Fuseishicho,Takamatsu,761-8071,34.311817,134.060342
21964-209884,Company Owned,3010-3 Otashimomachi,Takamatsu,761-8073,34.304067,134.051766
59345-293562,Company Owned,608-1 Sanjocho,Takamatsu,761-8072,34.315954,134.043018
30369-76569,Company Owned,608-1 Chusho Sanjocho,Takamatsu,761-8072,34.316931,134.042308
30331-68342,Company Owned,1-3-1 Tokiwacho,Takamatsu,760-0054,34.339256,134.052531
30329-67282,Company Owned,6-1 Marugamemachi,Takamatsu,760-0029,34.343001,134.049729
55832-289734,Company Owned,1-20 Hamanocho,Takamatsu,760-0011,34.350685,134.046641
30491-157667,Company Owned,31-1 Nagasa Nakano,Wakayama,640-8535,34.254308,135.138803
30574-96895,Company Owned,1469-1 Mukaiunoshima Matsue,Wakayama,640-8421,34.238844,135.153442
66373-300902,Company Owned,1-7-87 Nishitakamatsu,Wakayama,641-0051,34.209014,135.170376
31661-117266,Company Owned,1-1 Kozaihonmachi,Takamatsu,761-8012,34.351625,134.004175
21876-213085,Company Owned,573 Kusudani Naka,Wakayama,640-8451,34.275221,135.149263
31471-108703,Company Owned,811-1 Kimiidera,Wakayama,641-0012,34.188016,135.181659
59014-291270,Licensed,17 Byobucho,Wakayama,640-8203,34.236204,135.167435
57491-291595,Company Owned,822-1 Kayahara,Ayagawa-cho,761-2304,34.251687,133.93069
60771-291746,Company Owned,1525-6 Hikata,Kainan,642-0002,34.155214,135.209206
48369-260027,Company Owned,174-5 Kozaki,Wakayma,640-8314,34.215504,135.201213
3691-146089,Company Owned,2568 Iwaya,Awaji,656-2401,34.584207,135.017254
24237-236766,Licensed,3-21-2 Hama,Utazu-cho,769-0203,34.310908,133.812987
63300-297109,Licensed,2-4-11 Otecho,Marugame,763-0034,34.289463,133.797546
49326-259570,Company Owned,9-3 Omachi,Iwade,649-6228,34.261455,135.321047
60766-293818,Company Owned,179-3 Shindencho,Marugame,763-0055,34.274885,133.78583
60291-294518,Company Owned,3-201 Rinkuminamihama,Sennan,590-0535,34.381103,135.264251
30565-96813,Company Owned,3-12 Rinkuuminamihama,Sennan,590-0535,34.380734,135.267556
31053-105575,Company Owned,1 Senshukukonaka,Tajiri-cho,549-0011,34.43446,135.243265
30999-104912,Company Owned,1 Senshukukonaka,Tajiri-cho,549-0011,34.434138,135.244623
31158-106523,Company Owned,1 Senshukukonaka,Tajiri-cho,549-0011,34.434896,135.244513
30555-96622,Company Owned,1 Senshukukokita,Izumisano,549-0001,34.434644,135.245427
27388-247469,Company Owned,1-1-23 Oakashicho,Akashi,673-0891,34.648998,134.992599
30156-28288,Company Owned,1-3-2 Yurinokidori Okubocho,Akashi,674-0068,34.681571,134.938773
30130-24187,Company Owned,12-6 Kaigandori Tarumi-ku,Kobe,655-0036,34.625362,135.049267
17288-175386,Company Owned,1-10-4 Nishimaiko Tarumi-ku,Kobe,655-0048,34.639917,135.0251
26618-244764,Company Owned,1-20 Kandacho Tarumi-ku,Kobe,655-0027,34.629249,135.053473
55548-288599,Company Owned,463-3 Shimizu Uozumicho,Akashi,674-0074,34.705041,134.908763
30177-28875,Company Owned,3-28 Rinkuouraminami,Izumisano,598-0047,34.405979,135.293974
61634-295730,Company Owned,3-28 Rinku Ourai Minami,Izumisano,598-8508,34.407524,135.294474
20892-197786,Company Owned,11-1 Befucho-Asahimachi,Kakogawa,675-0123,34.729872,134.849837
9148-151044,Company Owned,4-9-1 Fujimino,Fujimino,356-0050,35.857734,139.516406
32059-131149,Company Owned,2218-1 Kamitome,Miyoshi-machi,354-0045,35.841664,139.502302
26258-230445,Company Owned,1-1313 Yamamuro,Fujimi,354-0022,35.858597,139.548558
58031-292198,Licensed,3-1 Izumicho,Kawagoe,350-0026,35.905993,139.512294
30522-93076,Company Owned,39-19 Wakitahoncho,Kawagoe,350-1123,35.907022,139.482825
55863-288391,Company Owned,2-6-28 Owada,Niiza,352-0004,35.805375,139.546759
30187-28855,Company Owned,2-39-1 Tohoku,Niiza,352-0001,35.822804,139.574785
55521-286565,Company Owned,2-38-1 Tohoku,Niiza,352-0001,35.822408,139.575133
30283-18619,Company Owned,1-22 Shintomicho,Kawagoe,350-0043,35.914589,139.481641
52636-282408,Company Owned,15-18 Saiwaicho,Kawagoe,350 0063,35.923678,139.483822
30275-60299,Company Owned,1-2-1 Midoricho,Tokorozawa,359-1111,35.805348,139.454917
19717-199787,Company Owned,2-17-10 Keyakidai,Tokorozawa,359-1118,35.796388,139.455616
53762-280755,Company Owned,1-14-5 Kusunokidai,Tokorozawa,359-0037,35.786668,139.473502
54289-286559,Company Owned,1-14-5 Kusunokidai,Tokorozawa,359-0037,35.78646,139.472926
30503-86122,Company Owned,1-8-1 Motomachi,Kiyose,204-0021,35.772584,139.519787
30573-95338,Company Owned,5-2-9 Honmachinishi Chuo-ku,Saitama,338-0004,35.891082,139.614906
61712-296171,Company Owned,2910-1 Kashiwabara,Sayama,350-1335,35.864011,139.404554
30466-84829,Company Owned,2-4-18 Honcho,Asaka,351-0011,35.796643,139.599492
54033-285936,Company Owned,5-3-18 Suzuya Chuo-ku,Saitama,338-0013,35.870517,139.629694
48226-261610,Company Owned,1-2-67 Kitano,Tokorozawa,359-1152,35.796696,139.42842
56737-289737,Company Owned,3-2-3 Iseharacho,Kawagoe,350-1108,35.921742,139.427811
30372-78186,Company Owned,1-1-12 Sakuragicho Omiya-ku,Saitama,330-0854,35.905601,139.621463
17309-180744,Company Owned,2-3 Sakuragicho Omiya-ku,Saitama,330-0854,35.906662,139.622145
47702-259486,Company Owned,10 Shintoshin Chuo-ku,Saitama,330-0081,35.893633,139.631349
30241-50079,Company Owned,630 Nishikicho Omiya-ku,Saitama,330-0853,35.906265,139.62456
65723-298920,Licensed,630 Nishikicho Omiya-ku,Saitama,330-0853,35.907025,139.624366
54370-286613,Company Owned,630 Nishikicho Omiya-ku,Saitama,330-0853,35.907271,139.624602
62976-297587,Company Owned,4-267-2 Kishikicho Omiya-ku,Saitama,330-0843,35.894208,139.634679
26259-236185,Company Owned,4-263-1 Kishikicho Omiya-ku,Saitama,330-0843,35.89629,139.634896
30482-88503,Company Owned,462 Shimohara Kamifujisawa,Iruma,358-0013,35.821399,139.39583
59580-293720,Company Owned,4-6 Honcho,Wako,351-0114,35.788298,139.613124
32629-138158,Company Owned,3-2-2 Bessho Minami-ku,Saitama,336-0021,35.855008,139.647392
30214-44101,Company Owned,7-12-1 Bessho Minami-ku,Saitama,336-0021,35.845725,139.646902
65476-294774,Company Owned,3-9-19 Sumiyoshicho,Nishitokyo,202-0005,35.751653,139.545377
62168-296747,Company Owned,2-5-1 Takasago Urawa-ku,Saitama,330-0063,35.857559,139.653802
65469-297744,Company Owned,6-12 Itchomekita,Ageo,362-0046,35.960826,139.570768
58163-292313,Company Owned,5-7-62 Minamisawa,Higashikurume,203-0023,35.745515,139.528175
30541-94656,Company Owned,1-854-1 Miyaharacho Kita-ku,Saitama,331-0812,35.933187,139.620892
26441-242424,Licensed,1-16-12 Takasago Urawa-ku,Saitama,330-0063,35.859435,139.657
30566-96814,Company Owned,1-3-1 Bijogihigashi,Toda,335-0032,35.826286,139.653461
32013-289018,Company Owned,11-1 Higashitakasagocho Urawa-ku,Saitama,330-0055,35.858234,139.659037
30420-75784,Company Owned,5-43-1 Higashioizumi,Nerima-ku,178-0063,35.749498,139.586143
31080-105576,Company Owned,580-1 Okunaka Mitsugi,Tsurugashima,350-2217,35.92704,139.391975
28486-247907,Company Owned,2-13-1 Narimasu,Itabashi-ku,175-0094,35.777558,139.632953
31416-108699,Company Owned,210 Kamiigusa,Kawajima-machi,350-0152,35.975975,139.467334
60220-292197,Company Owned,2-2-8 Fujimi,Tsurugashima,350-2201,35.951601,139.412464
61914-296429,Company Owned,3-8-1 Atago,Ageo,362-0034,35.96511,139.600923
57406-290121,Company Owned,1-12-9 Tenjincho,Kodaira,187-0004,35.730485,139.493976
29256-253148,Company Owned,1-1931 Owadacho Minuma-ku,Saitama,337-0053,35.923708,139.655889
63738-296750,Company Owned,5-1-1 Hikarigaoka,Nerima-ku,179-0072,35.759954,139.628155
12727-155291,Company Owned,1-3-15 Aomi,Koto-ku,135-0064,35.625467,139.780629
30341-71203,Company Owned,1-3-15 Aomi,Koto-ku,135-0064,35.625281,139.78122
17236-169544,Company Owned,1-1-10 Aomi,Koto-ku,135-0064,35.625684,139.776038
30114-149644,Company Owned,1-7-1 Daiba,Minato-ku,135-0091,35.627642,139.772915
26864-245927,Company Owned,3-11-1 Ariake,Koto-ku,135-0063,35.630898,139.79496
56949-290953,Licensed,2-7-20 Shinonome,Koto-ku,135-0062,35.642063,139.803486
30205-38540,Company Owned,2-2-4 Higashishinagawa,Shinagawa-ku,140-0002,35.623409,139.749103
51904-280045,Company Owned,4-12-5 Higashishinagawa,Shinagawa-ku,140-0002,35.610532,139.748875
30282-50081,Company Owned,1-8-10 Harumi,Chuo-ku,104-0053,35.656468,139.782042
31308-107112,Company Owned,2-4-9 Toyosu,Koto-ku,135-8614,35.655159,139.792569
61101-292830,Company Owned,2-2-1 Toyosu,Koto-ku,135-0061,35.654751,139.794659
30036-11559,Company Owned,2-15-2 Konan,Minato-ku,108-0075,35.626699,139.741934
25550-241531,Company Owned,2-4-9 Toyosu,Koto-ku,135-8614,35.656018,139.791962
56362-290246,Company Owned,3-1-21 Shibaura,Minato-ku,108 0023,35.644773,139.748795
56363-290250,Company Owned,3-1-21 Shibaura,Minato-ku,108-0023,35.644949,139.748937
54297-286560,Licensed,2-1-78 Konan,Minato-ku,108-0075,35.629097,139.740127
5151-148550,Licensed,2-1-78 Konan,Minato-ku,108-0075,35.630017,139.740231
30198-37159,Company Owned,3-3-3 Toyosu,Koto-ku,135-6090,35.656315,139.796494
22404-212190,Company Owned,3-2-24 Toyosu,Koto-ku,135-0061,35.657397,139.794626
59529-293773,Company Owned,5-34-6 Shiba,Minato-ku,108-0014,35.646232,139.746543
61518-295985,Company Owned,2-1-220 Konan,Minato-ku,108-0074,35.636025,139.739549
32014-127585,Company Owned,2-3-4 Shibakoen,Minato-ku,105-0011,35.656892,139.751949
24607-238418,Company Owned,5-6-1 Kitashinagawa,Shinagawa-ku,141-0001,35.62162,139.730927
30043-11582,Company Owned,1-11-1 Osaki,Shinagawa-ku,141-0032,35.61918,139.731241
30575-98057,Company Owned,1-9-1 Higashishinbashi,Minato-ku,105-7302,35.663151,139.760853
53469-285646,Company Owned,5-20-1 Higashioi,Shinagawa-ku,140-0011,35.605846,139.735315
30518-93820,Company Owned,1-1-1 Oi,Shinagawa-ku,140-0014,35.607595,139.734187
31725-117708,Company Owned,1-8-2 Higashishinbashi,Minato-ku,105-7090,35.664379,139.76192
31700-115275,Company Owned,9-1 Akashicho,Chuo-ku,104-8560,35.667318,139.777049
30805-102684,Company Owned,1-17-2-102 Shirokane,Minato-ku,108-0072,35.644109,139.734319
15139-153184,Company Owned,1-50-5 Oi,Shinagawa-ku,140-0014,35.605651,139.734382
59534-293774,Company Owned,1-6-1 Higashishinbashi,Minato-ku,105-7402,35.664598,139.760179
15408-150965,Licensed,2-10-1 Osaki,Shinagawa-ku,141-0032,35.617474,139.728809
30063-12106,Company Owned,2-12-8 Tsukiji,Chuo-ku,104-0045,35.66788,139.771976
30441-81101,Company Owned,1-5-2 Higashishinbashi,Minato-ku,105-7101,35.66551,139.760993
9102-92936,Company Owned,5-15-8 Ginza,Chuo-ku,104-0061,35.6678,139.76728
22628-223066,Licensed,4-11-1 Shinbashi,Minato-ku,105-0004,35.664867,139.756501
58759-292386,Licensed,2-17-14 Shinbashi,Minato-ku,105-0004,35.666153,139.759049
30281-45362,Company Owned,2-5-1 Atago,Minato-ku,105-6290,35.661931,139.748779
30099-18581,Company Owned,2-19-3 Shinbashi,Minato-ku,105-0004,35.666821,139.759653
61671-296103,Licensed,2-17-14 Shinbashi,Minato-ku,105-0004,35.666614,139.758455
30172-31119,Company Owned,1-5-30 Kiba,Koto-ku,135-0042,35.666837,139.804052
32470-138172,Company Owned,2-1-2 Higashigotanda,Shinagawa-ku,141-0022,35.62556,139.724515
49169-250432,Company Owned,6-10-1 Ginza,Chuo-ku,104-0061,35.669637,139.764855
55460-289331,Company Owned,6-10-1 Ginza,Chuo-ku,104 0061,35.669972,139.764354
30037-11560,Company Owned,1-18-1 Nishigotanda,Shinagawa-ku,141-0031,35.623627,139.722933
30028-11542,Company Owned,1-11-14 Azabujuban,Minato-ku,106-0045,35.655717,139.736308
52527-282407,Company Owned,5-7-10 Ginza,Chuo-ku,104-0061,35.670783,139.764146
30001-9512,Company Owned,3-7-14 Ginza,Chuo-ku,104-0061,35.671686,139.766618
62273-296662,Company Owned,3-7-6 Ginza,Chuo-ku,104-0061,35.672005,139.767359
2062-154212,Company Owned,517-1 Karakasayanagi,Goshogawara,037-0004,40.798245,140.454748
47916-253772,Company Owned,2-2-36 Miyoshi,Aomori,038-0006,40.831343,140.703998
51850-278013,Company Owned,2-17-6 Takasaki,Hirosaki,036-8091,40.609248,140.496279
25338-240589,Company Owned,1-1 Kamishiroganecho,Hirosaki,036-8207,40.603364,140.463218
61516-295986,Licensed,9-20 Ekimaecho,Hirosaki,036-8003,40.597414,140.481758
19104-193045,Company Owned,1-2-3 Yanakawa,Aomori,038-8555,40.828181,140.734409
26431-232866,Company Owned,134-2 Fujito Arakawa,Aomori,030-0111,40.79721,140.739452
3778-153185,Company Owned,1-27-1 Deiki Kanazawa-ku,Yokohama,236-0021,35.334333,139.622797
60777-293434,Company Owned,5-2 Shiraho Kanazawa-ku,Yokohama,236-0007,35.379792,139.646188
30559-96621,Company Owned,1-1-1 Sugita Isogo-ku,Yokohama,235-0033,35.385109,139.619451
53754-271409,Company Owned,1809-1 Nagae,Hayamamachi,240-0113,35.28772,139.596485
30513-93813,Company Owned,1-4-1 Zushi,Zushi,249-0006,35.297105,139.579302
12734-152985,Company Owned,3-1-3 Konandai Konan-ku,Yokohama,234-0054,35.37523,139.57727
30534-93317,Company Owned,1 Tomaricho,Yokosuka,238-0001,35.294897,139.67317
3836-153564,Company Owned,2-1-12 Honcho,Yokosuka,238-0041,35.282827,139.660918
30371-77186,Company Owned,1-2-7 Komachi,Kamakura,,35.317999,139.550682
30719-93816,Company Owned,15-11 Onarimachi,Kamakura,248-0012,35.319653,139.547884
30234-45139,Company Owned,2-30 Wakamatsucho,Yokosuka,238-8533,35.278166,139.670525
63752-294273,Company Owned,2-2-1 Kasama Sakae-ku,Yokohama,247-0006,35.354951,139.533098
30366-76565,Company Owned,1-4-1 Ofuna,Kamakura,247-0056,35.352844,139.531215
59594-293820,Company Owned,1-6-1 Kamiookanishi Konan-ku,Yokohama,233-0002,35.409362,139.596785
30253-53059,Company Owned,1-6-1 Kamiookanishi Konan-ku,Yokohama,233-0002,35.409262,139.596324
30335-71202,Company Owned,10 Totsukacho Totsuka-ku,Yokohama,244-0003,35.401319,139.534698
30083-297978,Company Owned,537-1 Shinanomachi Totsuka-ku,Yokohama,244-0801,35.430209,139.558567
30038-11561,Company Owned,1-13-5 Motomachi Naka-ku,Yokohama,231-0861,35.441428,139.650653
65557-300012,Licensed,1-2 Minamifujisawa,Fujisawa,251-0055,35.338672,139.487904
30307-65682,Company Owned,"438-1 Fujisawa,",Fujisawa,251-0052,35.338853,139.487219
30297-62839,Company Owned,60 Nihonodori Naka-ku,Yokohama,231-0021,35.445567,139.640436
30090-14430,Company Owned,4-45 Tokiwacho Naka-ku,Yokohama,231-0014,35.446603,139.635411
60750-294161,Company Owned,1-1-93 Sakuragicho Naka-ku,Yokohama,231-0062,35.450201,139.631431
61669-296102,Company Owned,6-50-10 Honcho Naka-ku,Yokohama,231-0005,35.450361,139.634228
22402-213686,Company Owned,1-1 Sakuragicho Naka-ku,Yokohama,231-0062,35.451154,139.631042
58162-292312,Company Owned,5-57-2 Kitanakadori Naka-ku,Yokohama,231-0003,35.451118,139.636051
30047-11600,Company Owned,2-2-1 Minatomirai Nishi-ku,Yokohama,220-0012,35.454486,139.631339
31678-117267,Company Owned,2-2-1 Shinko Naka-ku,Yokohama,231-0001,35.45482,139.638009
30488-90862,Company Owned,134 Godocho Hodogaya-ku,Yokohama,240-0005,35.454158,139.597038
59577-290351,Company Owned,2-14-1 Shinko Naka-ku,Yokohama,231-0001,35.455619,139.64137
30009-9915,Company Owned,2-3-9 Minatomirai Nishi-ku,Yokohama,220-0012,35.456512,139.634557
58232-292385,Company Owned,3-7-1 Minatomirai Nishi-ku,Yokohama,220-0012,35.458125,139.634618
31844-125768,Licensed,4-7-1 Minatomirai Nishi-ku,Yokohama,220-0012,35.459185,139.631542
22128-213684,Company Owned,4-4-5 Minatomirai Nishi-ku,Yokohama,220-0012,35.460737,139.629829
9105-105573,Company Owned,4-3-5 Tsujidoshinmachi,Fujisawa,251-0042,35.340214,139.465138
18444-178308,Licensed,1-1-1 Takashima Nishi-ku,Yokohama,220-8686,35.464022,139.626734
23616-229284,Licensed,6-20-1 Tsujidomotomachi,Fujisawa,251-0043,35.334049,139.463394
16682-173849,Company Owned,2-19-12 Takashima Nishi-ku,Yokohama,220-0011,35.464745,139.625195
30129-243448,Company Owned,2-15-13 Minamisaiwai Nishi-ku,Yokohama,220-8577,35.464965,139.618546
50851-276485,Company Owned,2-16-B1 Takashima Nishi-ku,Yokohama,220-0011,35.465147,139.622759
12484-154768,Company Owned,2-16-1 Takashima Nishi-ku,Yokohama,220-0011,35.465628,139.622949
30344-65364,Company Owned,1-9-13 Minamisaiwai Nishi-ku,Yokohama,220-0005,35.465617,139.619584
29432-253771,Company Owned,1-10 Kinkomachi Kanagawa-ku,Yokohama,221-0056,35.466616,139.62638
60751-293887,Company Owned,1-1-1 Minamisaiwai Nishi-ku,Yokohama,220-0005,35.466937,139.622549
30194-29717,Company Owned,2-6-1 Kitasaiwai Nishi-ku,Yokohama,220-0004,35.466906,139.616901
26439-243446,Company Owned,1-3-1 Minamisaiwai Nishi-ku,Yokohama,220-8533,35.466998,139.622183
26659-238625,Company Owned,1-4 Minamisaiwai Nishi-ku,Yokohama,220-0005,35.467612,139.61961
57645-291748,Licensed,16-3 Yayoidai Izumi-ku,Yokohama,245-0008,35.428691,139.507015
30093-13400,Company Owned,2-15 Shonandai,Fujisawa,252-0804,35.396114,139.466824
3987-151886,Company Owned,1-16-7 Minamitakada,Nagano,381-0033,36.642894,138.223029
26382-214684,Company Owned,1-22-6 Minamichitose,Nagano,380-8543,36.643706,138.18851
30484-87342,Company Owned,826 Minamichitosecho,Nagano,380-0822,36.644954,138.187986
60496-293715,Company Owned,483 Motoyoshicho,Nagano,380-0851,36.65881,138.187713
23742-233286,Company Owned,963-1 Inasatomachi-nakahigano,Nagano,381-2215,36.609851,138.170565
54284-286564,Company Owned,736-1 Uchikawa,Chikuma,389-0802,36.508449,138.134059
59349-293561,Company Owned,1-6-34 Chuokita,Ueda,386-0011,36.407416,138.258032
15273-156405,Company Owned,3-5-1 Tenjin,Ueda,386-0025,36.399323,138.244095
30552-95906,Company Owned,2-12-18 Tokida,Ueda,386-0018,36.392015,138.257974
58608-292828,Company Owned,5490 Hokujo,Hakubamura,399-9301,36.697636,137.856814
57177-291192,Company Owned,1-22-3 Iwamuradakita,Saku,385-0023,36.283986,138.481206
32662-137352,Company Owned,11-10 Sakudairaekiminami,Saku,385-0029,36.275858,138.463625
60545-294831,Company Owned,629-11 Toyoshina-minamihotaka,Azumino,399-8201,36.301309,137.917488
3688-145584,Company Owned,961-1 Takibe Toyoshina,Azumino,399-8204,36.270644,137.93182
32467-137778,Licensed,1-2-1 Motomachi,Matsumoto,390-0803,36.239835,137.980817
30542-93695,Company Owned,Karuizawa,Karuizawa-machi,389-0102,36.341971,138.637714
51150-277378,Company Owned,"4-9-51, Chuo",Matsumoto,390-0811,36.233782,137.978294
31816-123364,Company Owned,1-1-1 Fukashi,Matsumoto,390-0815,36.230954,137.964528
30543-93817,Company Owned,1-7-1 Nagisa,Matsumoto,390-0841,36.232023,137.955853
60755-293819,Company Owned,9-12 Motoshirocho,Joetsu,943-0835,37.108431,138.258755
53470-285647,Company Owned,1-1-3 Idegawa,Matsumoto,390-0827,36.219876,137.977097
29253-253146,Company Owned,2-18-14 Hiratahigashi,Matsumoto,399-0014,36.189658,137.9642
1832-138646,Company Owned,917 Yokokawa Matsuidamachi,Annaka,379-0301,36.340165,138.740952
21848-215664,Company Owned,1766 Shimomonzen,Joetsu,942-0063,37.157933,138.253298
62672-297169,Company Owned,3-8-8 Nishihoncho,Joetsu,942-0004,37.170808,138.237637
62667-297168,Company Owned,986-1 Hirookayoshida,Shiojiri,399-0701,36.155637,137.950788
47368-254608,Company Owned,1-1-5 Ginza,Okaya,394-0022,36.065893,138.051266
21305-210704,Company Owned,2-2312-1 Jonan,Suwa,392-0017,36.03046,138.120574
16823-170424,Company Owned,3171 Tokokubo Toyoda,Suwa,392-0016,36.027041,138.077763
56372-289736,Company Owned,1894-7 Tomioka,Tomioka,370-2316,36.263131,138.900364
61540-296041,Company Owned,1400 Munadakamachi,Takasaki,370-3521,36.39049,139.00675
31336-107737,Company Owned,1400 Munadakamachi,Takasaki,370-3521,36.39036,139.007357
30589-95542,Company Owned,821 Okubo,Yoshioka-machi,370-3602,36.420071,139.026151
61839-295677,Company Owned,2113-3 Oyagimachi,Takasaki,370-0072,36.359687,139.00142
50179-273350,Company Owned,2-3-10 Motosojamachi,Maebashi,371-0846,36.393068,139.038665
59532-293564,Company Owned,77 Shikishimacho,Maebashi,371-0036,36.409203,139.052727
51703-279065,Company Owned,46-1 Yashimacho,Takasaki,370-0849,36.323035,139.011415
30247-48139,Company Owned,222 Yajimacho,Takasaki,370-0849,36.322882,139.011815
13019-155772,Company Owned,222 Yashimacho,Takasaki,370-0849,36.321955,139.01349
32393-137527,Company Owned,1327-3 Kaizawamachi,Takasaki,370-0042,36.339165,139.027429
6190-152124,Company Owned,1-22 Oyamacho Midori-ku,Sagamihara,252-0146,35.590904,139.348901
30107-15505,Company Owned,6-2-1 Hashimoto Midori-ku,Sagamihara,252-0143,35.596178,139.344842
30983-104802,Company Owned,3-2-8 Oyamagaoka,Machida,194-0215,35.599963,139.379458
18662-190104,Company Owned,2-1-6 Minamiosawa,Hachioji,192-0364,35.614039,139.379545
12964-153844,Company Owned,4-19-20 Kyowa Chuo-ku,Sagamihara,252-0234,35.562572,139.396932
18028-180144,Company Owned,2-12-1 Horinouchi,Hachioji,192-0355,35.628872,139.401189
6194-152450,Company Owned,4-7-1 Koyasumachi,Hachioji,192-0904,35.654096,139.338496
21547-178305,Company Owned,1-15-1 Kitazato Minami-ku,Sagamihara,252-0375,35.538365,139.394945
21202-209867,Company Owned,1-1 Asahicho,Hachioji,192-0083,35.656256,139.339134
30433-79320,Company Owned,9-1 Asahicho,Hachioji,192-0083,35.657431,139.338649
28178-250444,Company Owned,3-27-1 Myojincho,Hachioji,192-0046,35.657934,139.343036
30358-75760,Company Owned,1-46-1 Ochiai,Tama,206-8543,35.622823,139.425192
52510-282404,Licensed,742-1 Higashinakano,Hachioji,192-0393,35.641757,139.408429
50351-267932,Company Owned,550-1 Higashiasakawamachi,Hachioji,193-0834,35.64375,139.289757
25645-228549,Company Owned,2-4-1 Tamadaira,Hino,191-0061,35.661498,139.380727
16307-165465,Company Owned,1-409-2 Motohachiojimachi,Hachioji,193-0826,35.66511,139.288111
32770-139194,Company Owned,1-15-13 Morino,Machida,194-0022,35.543437,139.444017
25551-241530,Company Owned,6-12-20 Haramachida,Machida,194-8550,35.544644,139.445824
30310-64863,Company Owned,3-16-1 Sagamiono Minami-ku,Sagamihara,252-0303,35.532497,139.435369
30004-9833,Company Owned,6-4-1 Haramachida,Machida,194-8501,35.543337,139.446868
19148-199127,Company Owned,3-8-1 Sagamiono Minami-ku,Sagamihara,252-0303,35.531603,139.436809
66374-300903,Company Owned,777-1 Utsukimachi,Hachioji,192-0024,35.68383,139.34678
25852-242713,Company Owned,6-1-11 Haramachida,Machida,194-0013,35.541921,139.446227
31649-115276,Company Owned,4-24-6 Manganji,Hino,191-0024,35.670123,139.411272
19744-200804,Company Owned,4-10-20 Haramachida,Machida,194-0013,35.542321,139.449253
30078-12777,Company Owned,4-72 Sekido,Tama,206-0011,35.649977,139.446696
60769-293884,Company Owned,1-10-1 Sekido,Tama,206-0011,35.6516,139.447101
30831-102809,Company Owned,1-5-1 Nogaya,Machida,195-0053,35.583569,139.482043
53704-282987,Company Owned,2-10-4 Hironodai,Zama,252-0012,35.501369,139.425412
30720-100921,Company Owned,3-1-10 Kanamori,Machida,194-0012,35.530071,139.46197
29433-253770,Company Owned,3-2-1 Shibasakicho,Tachikawa,190-8554,35.69751,139.414725
28883-251780,Company Owned,3-1-1 Shibasakicho,Tachikawa,190-0023,35.69813,139.413449
30376-230464,Company Owned,2-1-1 Akebonocho,Tachikawa,190-0012,35.698513,139.413896
30196-31160,Company Owned,2-5-1 Akebonocho,Tachikawa,190-0012,35.699899,139.41292
32219-135146,Company Owned,1101-1 Oigawa,Atsugi,243-0212,35.469934,139.340328
30564-96701,Company Owned,562-1 Tananacho,Akishima,196-0014,35.713694,139.363825
57325-291412,Company Owned,3-4-1 Tsuruma,Machida,194-0004,35.509878,139.472715
55598-281390,Company Owned,1-17-1 Manpukuji Asao-ku,Kawasaki,215-0004,35.604361,139.507678
58953-293202,Company Owned,1-4-1 Kamiasao Asao-ku,Kawasaki,215 0021,35.603317,139.508831
30432-81167,Company Owned,1-6 Higashi,Kunitachi,186-0002,35.697727,139.447011
26791-238806,Company Owned,935-1 Izumicho,Tachikawa,190-0015,35.712382,139.417126
30583-98076,Company Owned,1-50 Miyamachi,Fuchu,183-0023,35.671173,139.480639
50261-273739,Company Owned,1-2-1 Fuchucho,Fuchu,183-0055,35.672541,139.479499
30311-65681,Company Owned,1-2-1 Shimotsuruma,Yamato,242-0001,35.489094,139.457188
61917-296427,Company Owned,1-14-1 Kita,Kunitachi,186-0001,35.699334,139.447181
28998-252026,Company Owned,1711-6 Higashinaganuma,Inagi,206-0802,35.637979,139.508333
24941-239413,Company Owned,13-1 Ogicho,Ebina,243-0436,35.455946,139.389331
61630-295844,Company Owned,4015-1 Yanokuchi,Inagi,206-8725,35.623789,139.517846
30785-102450,Company Owned,4-7-1 Nagatsutaminamidai Midori-ku,Yokohama,226-0018,35.518058,139.497712
61400-295843,Company Owned,4015-1 Yanokuchi,Inagi,206-8725,35.628656,139.518266
22453-221165,Company Owned,2-11 Nishichaya Minato-ku,Nagoya,455-0858,35.10384,136.825474
66323-300843,Company Owned,2-20-3 Rinkucho,Tokoname,479-0882,34.882784,136.826137
30578-95905,Company Owned,1-1 Centrair,Tokoname,479-0881,34.858659,136.811643
31537-111245,Company Owned,1-1 Centrair,Tokoname,479-0881,34.860478,136.814827
30577-94973,Company Owned,1-1 Centrair,Tokoname,479-0881,34.859299,136.815414
25066-239834,Company Owned,102-1 Shimohamada Otamachi,Tokai,477-0031,35.020257,136.89208
54732-278234,Company Owned,1-1 Centrair,Tokoname,479-0881,34.855287,136.817666
55397-289268,Company Owned,2-3-2 Komei Minato-ku,Nagoya,455-8501,35.110017,136.883019
56205-290111,Licensed,2-3-2 Komei Minato-ku,Nagoya,455 0018,35.109126,136.883892
62770-296426,Company Owned,72 Kagiyamachi Ishida,Tokai,477-0032,35.006767,136.907942
60092-294162,Licensed,9 Hakusuicho Minami-ku,Nagoya,457-0818,35.074489,136.907571
51840-270176,Company Owned,4-60-12 Hiraikecho Nakamura-ku,Nagoya,453-6101,35.162765,136.884131
26660-238416,Licensed,1-1-4 Meieki Nakamura-ku,Nagoya,450-0002,35.169274,136.881551
19122-193564,Licensed,5-6 Tsubakicho Nakamura-ku,Nagoya,453-0801,35.170185,136.881292
30379-72862,Company Owned,1-2-26 Kanayamacho Atsuta-ku,Nagoya,456-0002,35.142154,136.901082
20219-204227,Company Owned,1-17-1 Kanayama Naka-ku,Nagoya,460-0022,35.143596,136.901006
1876-143964,Licensed,5-6 Tsubakicho Nakamura-ku,Nagoya,453-0801,35.170046,136.88292
30110-15813,Company Owned,1-1-4 Meieki Nakamura-ku,Nagoya,450-6013,35.170349,136.882942
63823-298549,Company Owned,1-17-1 Kanayama Naka-ku,Nagoya,460-0022,35.144141,136.901305
22335-219764,Company Owned,1-2-1 Meieki Nakamura-ku,Nagoya,450-8505,35.169942,136.884203
51427-261608,Licensed,1-1-3 Meieki Nakamura-ku,Nagoya,450-6601,35.172344,136.882346
56357-290245,Company Owned,4-27-1 Meieki Nakamura-ku,Nagoya,450-0002,35.168024,136.885867
29048-236190,Licensed,1-1-3 Meieki Nakamura-ku,Nagoya,450-6615,35.172025,136.882978
30186-26867,Company Owned,4-7-25 Meieki Nakamura-ku,Nagoya,450-0002,35.170662,136.88432
29299-247628,Company Owned,1-1-1 Meieki Nakamura-ku,Nagoya,450-0001,35.17279,136.882745
65560-300011,Company Owned,18-4 Sanbonmatsucho Atsuta-ku,Nagoya,456-0032,35.125945,136.91266
64721-297838,Company Owned,3-28-12 Meieki Nakamura-ku,Nagoya,450-0002,35.171986,136.884512
30336-71200,Company Owned,4-5-26 Meieki Nakamura-ku,Nagoya,450-0002,35.171497,136.885406
30483-87340,Company Owned,1-201 Mutsuno Atsuta-ku,Nagoya,456-8763,35.136845,136.909804
66349-300153,Company Owned,3-1-17 Noritakeshinmachi Nishi-ku,Nagoya,451-0051,35.180615,136.880383
66347-300152,Company Owned,3-1-17 Noritakeshinmachi Nishi-ku,Nagoya,451-0051,35.180754,136.880601
59015-291821,Company Owned,2-903 Tachibana Naka-ku,Nagoya,460-0016,35.151094,136.903956
30511-93808,Company Owned,1-18-22 Nishiki Naka-ku,Nagoya,460-8633,35.168245,136.894519
60698-294987,Company Owned,2-16-24 Nishiki Naka-ku,Nagoya,460-0003,35.168072,136.897273
3689-145249,Company Owned,91 Chudojiawatacho Shimogyo-ku,Kyoto,600-8815,34.995825,135.737471
30524-93318,Company Owned,25-1-043 Saiinoiwakecho Ukyo-ku,Kyoto,615-0035,34.99754,135.727035
60774-294830,Company Owned,Kankijicho Shimogyo-ku,Kyoto,600-8835,34.98802,135.743542
19718-200304,Company Owned,8-2 Yamanouchi-ikejiricho Ukyo-ku,Kyoto,615-0072,35.004276,135.719943
30262-53559,Company Owned,652 Nijohanjikicho,Kyoto,600-8412,35.001881,135.759348
48128-261605,Company Owned,1 Nishikujo Toriiguchicho Minami-ku,Kyoto,601-8417,34.982938,135.754654
21975-216645,Company Owned,902 Higashishiokoujicho Karasumadori,Kyoto,600-8216,34.986547,135.757992
25552-241529,Company Owned,101 Kankobokocho Shimogyo-ku,Kyoto,600-8009,35.003922,135.759282
30530-93075,Company Owned,721-1 Higashishiokojicho,Kyoto,600-8216,34.987389,135.759487
30219-44100,Company Owned,902 Higashishiokoujicho,Kyoto,600-8216,34.986516,135.759335
59658-293889,Licensed,8-3 Higashishiokojitakakuracho,Kyoto,600-8214,34.984736,135.759481
1823-137770,Company Owned,651 Mototakedacho,Kyoto,604-8145,35.00505,135.761211
1829-137742,Company Owned,254 Donomaecho Rokkakudori-,Kyoto,604-8134,35.00764,135.759842
30102-18582,Company Owned,85-1 Mikuracho Sanjo-Karasuma-Nishiiru,Kyoto,604-8166,35.008721,135.759344
30064-12102,Company Owned,106 Tachiurinakacho,Kyoto,600-8006,35.003823,135.763894
61403-295839,Company Owned,7 Tachiurihigashicho,Kyoto,600-8005,35.003565,135.76436
24609-238414,Company Owned,Torayacho-chisaki Nakagyo-ku,Kyoto,604-8171,35.010862,135.759605
15361-155464,Company Owned,30 Otabicho 2-chome Shijodori-,Kyoto,600-8002,35.003971,135.768168
30426-81680,Company Owned,421 Sakuranocho,Kyoto,604-8035,35.007626,135.767347
59352-292317,Company Owned,251 Yamazakicho Kawaramachidori,Kyoto,604-8032,35.006956,135.769595
47136-256924,Company Owned,Shijoohashi-higashitsume,Kyoto,605-0075,35.003789,135.772141
30089-13402,Company Owned,113 Nakajimacho,Kyoto,604-8004,35.009109,135.771232
30252-48099,Company Owned,555 Gionmachi-Minamigawa Higashiyama-ku,Kyoto,605-0074,35.003595,135.776124
50128-270177,Company Owned,349 Masuyacho Kodaijiminamidori,Kyoto,605-0826,34.998293,135.780796
27804-248768,Licensed,13 Okazaki-saishojicho Sakyo-ku,Kyoto,606-8342,35.013968,135.780994
23055-227407,Licensed,67 Fukakusatsukamotocho Fushimi-ku,Kyoto,612-8577,34.964509,135.768052
25221-225984,Company Owned,376-1 Kuzetakadacho Minami-ku,Kyoto,601-8601,34.963722,135.707993
63824-298550,Company Owned,376-1 Kuzetakadacho Minami-ku,Kyoto,601-8211,34.963509,135.707047
61009-294902,Company Owned,49-1 Koyamakitakamifusacho Kita-ku,Kyoto,603-8142,35.044975,135.758233
30184-30759,Company Owned,36 Takanonishibirakicho Sakyo-ku,Kyoto,606-8103,35.0409,135.778979
16812-170764,Company Owned,156-1 Moriminami-ouchi,Kumiyama-cho,613-0024,34.892854,135.746058
50030-262443,Company Owned,21-18 Ujirenge,Uji,611-0021,34.89066,135.80705
65200-298828,Company Owned,33-1 Oiwakecho Shimojima,Kameoka,621-0804,35.016732,135.582492
29298-246968,Company Owned,2-20 Kuzuhaasahi,Hirakata,573-1111,34.859675,135.687507
66110-300577,Company Owned,15-1-Z105 Kuzuhahanazonocho,Hirakata,573-1121,34.862076,135.677322
30594-99418,Company Owned,15-1-112 Kuzuhahaanazonocho,Hirakata,573-1121,34.861031,135.677225
57668-290792,Company Owned,21-1 Kinmeidainishi,Yawata,614-8297,34.834654,135.718938
31605-111633,Company Owned,3-1-2 Matsuigaoka,Kyotanabe,610-0353,34.832147,135.728981
64588-296922,Company Owned,12-17 Hacchonawatecho,Takatsuki,569-0096,34.855744,135.630215
30523-93479,Company Owned,1-2 Akutagawacho,Takatsuki,569-1123,34.851689,135.61679
61405-295840,Company Owned,2-1 Konyacho,Takatsuki,569-0804,34.850766,135.618359
53946-286196,Licensed,16-1 Nakamiyahigashinocho,Hirakata,573 1001,34.823342,135.664187
53944-286195,Licensed,6-1 Gotenyama-Minamimachi,Hirakata,573 1193,34.823119,135.657161
15270-158546,Company Owned,1-3-1 Tsujidokandai,Fujisawa,251-0041,35.338021,139.446381
3854-153286,Company Owned,1-27-1 Higashijonan,Oyama,323-0829,36.296955,139.808291
30496-165126,Company Owned,3-3-22 Shiroyamacho Oyama-shi,Tochigi,323-0025,36.315554,139.807018
31677-117276,Company Owned,1475 Kizawa,Oyama,323-0014,36.333186,139.808402
49745-271050,Company Owned,7-1 Yamatocho,Tochigi,328-0037,36.37843,139.733195
1826-137045,Company Owned,3311-1 Yakushiji,Shimotsuke,329-0498,36.398465,139.859759
58241-291592,Company Owned,3720-1 Yakushiji,Shimotsuke,329-0431,36.396125,139.883436
58725-286062,Company Owned,1850 Kawasumi,Chikusei,308-0801,36.323635,139.993243
30471-86763,Company Owned,1324-1 Takahagicho,Sano,327-0821,36.299041,139.606331
30946-103716,Company Owned,2058 Koenacho,Sano,327-0822,36.294291,139.605322
30452-83444,Company Owned,2058 Koenacho,Sano,327-0822,36.292562,139.604795
31081-105578,Company Owned,880 Kitakobayashi,Mibu-machi,321-0293,36.472318,139.8252
1607-137549,Company Owned,972-1 Horigome,Shimotsuma,304-0033,36.189613,139.98984
54327-283605,Licensed,51 Tajimacho,Sano,327-0031,36.299745,139.566369
48129-261607,Company Owned,1-14-4 Shimokomagi,Moka,321-4337,36.432595,139.986398
30489-87903,Company Owned,6-1-1 Interpark,Utsunomiya,321-0118,36.491034,139.906196
19990-203224,Company Owned,4-2-3 Interpark,Utsunomiya,321-0118,36.493836,139.90905
5139-147945,Company Owned,824 Sanshinden Miroku,Hanyu,348-0004,36.180513,139.585782
55861-289398,Company Owned,12-36 Asahicho,Tatebayashi,374-0063,36.251994,139.540928
31042-105210,Company Owned,2-1-1 Chuo,Kuki,346-0003,36.065525,139.677685
28494-245013,Company Owned,3-12-3 Nishimoro,Kanuma,322-0029,36.550887,139.766797
21203-209866,Company Owned,2-24-11 Joto,Utsunomiya,321-0935,36.549592,139.905006
32058-131150,Company Owned,2-281-3 Kawasaki,Hanyu,348-0039,36.143392,139.540915
62665-296748,Company Owned,514-1 Komatsu,Hanyu,348-0037,36.159892,139.526716
49443-269126,Company Owned,2-12-12 Tsuruta,Utsunomiya,320-0857,36.562586,139.855333
15227-158966,Company Owned,6005-1 Shobu Shobucho,Kuki,346-0195,36.075187,139.611627
30499-93320,Company Owned,1-23 Kawamukomachi,Utsunomiya,321-0965,36.560746,139.898238
30561-95838,Company Owned,6-2-1 Yoto,Utsunomiya,321-8555,36.555162,139.928157
30200-36099,Company Owned,237 Imaizumicho,Utsunomiya,321-0962,36.573575,139.900178
50752-263459,Company Owned,911-1 Takebayashimachi,Utsunomiya,321-0974,36.579133,139.897433
65457-295841,Company Owned,254-6 Fukuicho,Ashikaga,326-0338,36.311707,139.446661
31846-123365,Company Owned,366-7 Kakenoue Kamitomatsuricho,Utsunomi,320-0051,36.587807,139.86508
55809-289601,Company Owned,3-23-1 Kenkyugakuen,Tsukuba,305-0817,36.088945,140.074588
32402-137530,Company Owned,1-1-1 Tennodai,Tsukuba,305-8377,36.109117,140.101326
1605-137760,Company Owned,5-19 Kenkyugakuen,Tsukuba,305-0817,36.086714,140.084216
24369-237767,Company Owned,4-12-17 Yuinomori,Utsunomiya,321-3226,36.56806,139.991927
19102-191886,Company Owned,420-1 Shimoyanagi,Kasukabe,344-0122,35.98783,139.78778
32618-282406,Company Owned,2-1-18 Amakubo,Tsukuba,305-0005,36.092545,140.101312
32524-137762,Company Owned,3-20-6 Gakuenminami,Tsukuba,305-0818,36.072556,140.085152
32081-132228,Company Owned,1-1-1 Minami,Kasukabe,344-0064,35.977585,139.755099
18219-188764,Company Owned,4630 Shimotakanezawa,Haga-machi,321-3393,36.574881,140.015925
1838-139192,Company Owned,2-128 Azuma,Tsukuba,305-0031,36.082725,140.111313
30584-98056,Company Owned,1-6-1 Azuma,Tsukuba,305-0031,36.082411,140.111495
30516-93409,Company Owned,81 Ishiharacho,Ota,373-0808,36.294454,139.400656
57413-290215,Company Owned,370 Kawajima,Hasuda,349-0112,35.977854,139.667149
64679-297828,Company Owned,328-1 Komaigicho,Ota,373-0818,36.284829,139.384405
51457-278229,Company Owned,2-6-5 Sakuranosato,Noda,278-0048,35.953895,139.84529
48372-261609,Company Owned,718-1 Nishiyajimacho,Ota,373-0823,36.276318,139.376849
48464-263455,Company Owned,957-1 Futatsunomiya,Ageo,362-0017,35.981417,139.602895
31023-105212,Company Owned,12-2 Inarimae,Tsukuba,305-0061,36.048328,140.128898
49746-271049,Company Owned,893-1 Shimohideya,Okegawa,363-0025,35.998775,139.552175
12989-154665,Company Owned,1 Mizue,Kurashiki,710-0802,34.602753,133.744266
16275-164412,Company Owned,12-3 Kotobukicho,Kurashiki,710-0813,34.603441,133.765271
32391-137533,Company Owned,1-7-1 Achi,Kurashiki,710-0055,34.601201,133.766287
32594-137782,Company Owned,2236-102 Nakashima,Kurashiki,710-0803,34.581634,133.74138
58916-292581,Company Owned,6-1 Sasaoki,Kurashiki,710-0834,34.570557,133.761973
31867-123925,Company Owned,329-1 Nodononishimachi Kita-ku,Okayama,700-0066,34.659455,133.881053
56822-290348,Company Owned,1-4-13 Nakasendo Kita-ku,Okayama,700-0964,34.645914,133.889967
62116-296685,Company Owned,1-1-5 Aoe Kita-ku,Okayama,700-0941,34.637164,133.918207
30860-103115,Company Owned,2-5-1 Shikatacho Kita-ku,Okayama,700-8558,34.650935,133.920635
25752-226764,Company Owned,1-2-1 Shimoishii Kita-ku,Okayama,700-0907,34.661594,133.917932
63825-298548,Company Owned,1-2-1 Shimoishii Kita-ku,Okayama,700-0907,34.662266,133.917757
60075-294371,Company Owned,1-1 Ekimotomachi Kita-ku,Okayama,700-0024,34.665709,133.917507
30391-288782,Company Owned,3 Chika Ichibangai Ekinomotocho,Okayama,700 0024,34.664842,133.918726
31180-106521,Company Owned,1-25-1 Chikkoshinmachi Minami-ku,Okayama,702-8056,34.602663,133.940644
30174-34002,Company Owned,1-11-54 Nakasange Kita-ku,Okayama,700-0821,34.662503,133.928327
18252-183075,Company Owned,124-1 Nishigawara Naka-ku,Okayama,703-8258,34.680559,133.942109
48949-257607,Licensed,1306 Asahimachi,Takahashi,716-0039,34.789038,133.616569
59533-293775,Licensed,3-1-1 Isegaoka,Fukuyama,721-0915,34.502661,133.42338
18466-186351,Company Owned,6-2-14 Minamizaocho,Fukuyama,721-0973,34.500185,133.400897
9100-151045,Company Owned,3-1-25 Irifunecho,Fukuyama,720-8523,34.486502,133.377527
57690-290349,Company Owned,4-12-12 Tajimecho,Fukuyama,720-0824,34.466992,133.377153
51783-279367,Company Owned,30-1 Sannomarucho,Fukuyama,720-0066,34.48949,133.362891
59204-293437,Licensed,104 Ekiyachochikata,Fukuyama,720-1133,34.543097,133.31895
65282-298829,Company Owned,1000-1 Kawanabe,Tsuyama,708-0842,35.064867,134.045627
12970-154767,Company Owned,1-1-1 Kasumicho,Yamagata,990-0039,38.248709,140.327977
27390-247464,Company Owned,3-9-24 Hakusan,Yamagata,990-2446,38.225501,140.320315
14878-154766,Company Owned,2-7-28 Mamigasaki,Yamagata,990-0810,38.281422,140.331343
17066-172464,Company Owned,1800 Aoyagi,Yamagata,990-2292,38.299997,140.345972
22159-218284,Company Owned,4-4-1 Hagatownkita,Tendo,994-0000,38.336178,140.362403
55198-275513,Company Owned,2-13-27 Kasuga,Yonezawa,992-0044,37.923235,140.106704
32802-136924,Company Owned,6-5-1 Teraoka Izumi-ku,Sendai,981-3287,38.342915,140.83541
30193-32682,Company Owned,2-2-2 Kokubuncho Aoba-ku,Sendai,980-0803,38.26242,140.869497
32692-137044,Company Owned,3-11-15 Ichibancho Aoba-ku,Sendai,980-8546,38.262253,140.871783
53555-281731,Company Owned,1-8-7 Dainohara Aoba-ku,Sendai,981-0911,38.283317,140.872625
62379-296428,Company Owned,1-1-1 Katsura Izumi-ku,Sendai,981-3134,38.332742,140.864595
30261-45361,Company Owned,2-5-3 Chuo Aoba-ku,Sendai,980-0021,38.261626,140.876863
52755-282984,Company Owned,7-20-3 Nagamachi Taihaku-ku,Sendai,982-0011,38.225194,140.876539
30418-81502,Company Owned,7-20-3 Nagamachi Taihaku-ku,Sendai,982-0011,38.226127,140.877185
18659-190085,Company Owned,4-2-1 Onoda Taihaku-ku,Sendai,982-0014,38.213938,140.877064
30361-75781,Company Owned,1-3-1 Chuo Aoba-ku,Sendai,980-6102,38.262586,140.881062
30157-31100,Company Owned,1-1-1 Chuo Aoba-ku,Sendai,980-0021,38.259185,140.881688
32691-290122,Company Owned,1-2-3 Chuo Aoba-ku,Sendai,980-8484,38.261956,140.881706
28481-247625,Company Owned,1-1-1 Chuo Aoba-ku,Sendai,980-8487,38.259475,140.883088
30327-66740,Company Owned,1-2-10 Tsutsujigaoka Miyagino-ku,Sendai,983-0852,38.259512,140.885774
30370-76564,Company Owned,1-4-1 Izumichuo Izumi-ku,Sendai,981-3133,38.32353,140.882265
30455-84907,Company Owned,1-33-1 Oshimizu,Tomiya,981-3329,38.364532,140.875003
22224-218866,Company Owned,3-10 Takadamacho Izumi-ku,Sendai,981-3116,38.318181,140.893774
31561-291195,Company Owned,5-3-1 Sekinoshita,Mori,981-1227,38.164632,140.89658
5066-146485,Licensed,4-14-1 Higashisendai Miyagino-ku,Sendai,983-0833,38.27627,140.908269
57559-290035,Company Owned,70-5 Yachi Minamiyanome,Fukushima,960-0012,37.788624,140.452672
49062-266828,Licensed,3-3-28 Nanaironosato Wakabayashi-ku,Sendai,984-0032,38.238237,140.930048
62272-293108,Company Owned,1-70 Rokuchonome-nakamachi,Sendai,984-0012,38.251136,140.936796
15436-161245,Company Owned,1-1 Sakaemachi,Fukushima,960-8031,37.75387,140.460293
63254-297314,Company Owned,3-1-1 Shinnakamichi,Rifu-cho,981-0114,38.322787,140.970539
63256-297315,Company Owned,3-1-1 Shinnakamichi,Rifu-cho,981-0114,38.322864,140.971043
61464-294583,Company Owned,3-20-4 Chuo,Rifu-cho,981-0104,38.327356,140.976398
26436-236764,Licensed,2-4-3 Chuo,Tagajo,985-0873,38.291965,141.005044
31845-118605,Company Owned,1 Hikarigaoka,Fukushima,960-1247,37.689992,140.47127
60759-290553,Company Owned,18 Namiuchihama Matsushima,Matsushima-cho,981-0213,38.36777,141.060432
51303-278008,Company Owned,2-3-15 Furukawaasahi,Osaki,989-6117,38.566073,140.972125
55430-285940,Company Owned,3-30 Kamihatamachi,Tsuruoka,997-0032,38.736233,139.82961
27144-154892,Company Owned,24-6 Suehirocho,Hakodate,040-0053,41.766558,140.715399
62247-296852,Company Owned,24-1 Honcho,Hakodate,040-0011,41.789736,140.75197
58753-291042,Company Owned,46-1 Kamedahoncho,Hakodate,041-0813,41.803711,140.735066
18018-180146,Licensed,85-1 Ishikawacho,Hakodate,041-0802,41.830926,140.735906
12894-153725,Company Owned,1-505 Mototokushige Midori-ku,Nagoya,458-8570,35.094831,136.999133
47564-255633,Company Owned,2-201 Kamiasahi Midori-ku,Nagoya,458-0016,35.091796,136.973782
51849-277386,Company Owned,"1 Sonote, Akaikecho",Nisshin,470-0126,35.117962,137.022657
30568-95839,Company Owned,3-9 Denjiyama Narumicho Midori-ku,Nagoya,458-0844,35.094344,136.959037
62216-296042,Licensed,Togochuo Tochikukakuseiri,Togo-cho,470-0162,35.100089,137.046157
63551-295477,Company Owned,2 Kutsukakecho Jusanzuka,Toyoake,470-1101,35.060026,137.021235
61444-295676,Company Owned,Togochuo Tochikukakuseiri,Togo-cho,470-0162,35.098317,137.048231
63085-296746,Company Owned,2-1 Hirojicho Ishizaka Showa-ku,Nagoya,466-0834,35.136878,136.962739
53255-284372,Company Owned,4-201-3 Kaguyama,Nisshin,470-0134,35.143694,137.026425
32398-131151,Company Owned,2-450 Minamiodaka Midori-ku,Nagoya,459-8016,35.052793,136.947617
32399-131152,Company Owned,2-450 Minamiodaka Midori-ku,Nagoya,459-8016,35.05265,136.947617
58724-292506,Company Owned,70-1 Nakajima Miyoshicho,Miyoshi,470-0224,35.093619,137.074436
8044-151046,Company Owned,Furocho Chikusa-ku,Nagoya,464-8601,35.155038,136.963895
30456-294604,Company Owned,16-50 Hoshigaokamotomachi Chikusa-ku,Nagoya,464-0802,35.160742,136.985611
31157-106520,Company Owned,2-2306 Takenoyama,Nisshin,470-0131,35.156867,137.033846
31694-117704,Company Owned,1 Kawasumi Mizuhocho Mizuho-ku,Nagoya,467-8602,35.139273,136.935727
50734-271047,Company Owned,1-1-1 Higashiyamatori Chikusa-ku,Nagoya,464-0807,35.163991,136.963949
1877-143965,Company Owned,4-2-1 Ayuchitori Syowa-ku,Nagoya,466-0027,35.149267,136.933326
30429-82208,Company Owned,1-1 Suemoridori Chikusa-ku,Nagoya,464-0821,35.166605,136.952134
15101-154348,Company Owned,3-401 Hiiragiyamacho,Obu,474-0053,35.019878,136.953007
30167-30941,Company Owned,901-1 Todaya,Nagakute,480-1124,35.172459,137.038498
19750-198745,Company Owned,14-8 Kanokoden Chikusa-ku,Nagoya,464-0021,35.178933,136.975714
31360-107736,Company Owned,170-4 Fujigaoka Meito-ku,Nagoya,465-0032,35.181836,137.021187
50176-273348,Company Owned,Nagakutechuo,Nagakute,480-1100,35.17344,137.05086
30601-99759,Company Owned,2-16-13 Chikusa Chikusa-ku,Nagoya,464-0858,35.162033,136.924621
52833-275514,Company Owned,214 Onda Kamishigeharacho,Chiryu,472-0026,35.004858,137.024225
55562-271406,Licensed,3-15-21 Saki Aoi Higashi-ku,Nagoya,461-0004,35.170642,136.930352
30558-96620,Company Owned,2-1-1 Chiyodabashi Chikusa-ku,Nagoya,464-0011,35.187504,136.969442
29853-252028,Licensed,1-1 Showacho,Kariya,448-8861,34.996698,137.006361
30394-78760,Company Owned,1-21-4 Aoi Higashi-ku,Nagoya,461-0004,35.170638,136.921045
32404-137524,Company Owned,3-31-14 Osu Naka-ku,Nagoya,460-0011,35.158494,136.905781
15930-163351,Company Owned,3-31-10 Sakae Naka-ku,Nagoya,460-0008,35.163516,136.9084
57449-291593,Company Owned,3-29-1 Sakae Naka-ku,Nagoya,460-0008,35.163649,136.907306
30135-24188,Company Owned,4-6-1 Sakae Naka-ku,Nagoya,460-0008,35.169113,136.913027
30980-104568,Company Owned,4-102-3 Yadaminami Higashi-ku,Nagoya,461-0048,35.187502,136.945209
30981-184166,Company Owned,4-102-3 Yadaminami Higashi-ku,Nagoya,461-0048,35.187686,136.945136
13017-155773,Company Owned,3-27-7 Sakae Naka-ku,Nagoya,460-0008,35.165041,136.906949
31312-107028,Company Owned,3-6-1 Sakae Naka-ku,Nagoya,460-0008,35.167112,136.907586
30383-56981,Company Owned,3-19-8 Sakae Naka-ku,Nagoya,460-0008,35.16572,136.904521
30290-62842,Company Owned,18-1 Oyama Nagashinocho,Chiryu,472-0045,34.998216,137.052905
30405-75101,Company Owned,1-11-1 Higashisakura Higashi-ku,Nagoya,461-0005,35.171693,136.909208
53761-285649,Company Owned,2-91-7 Futamatagawa Asahi-ku,Yokohama,241-0821,35.463062,139.531879
53942-286193,Licensed,2-82-1 Tsurugamine Asahi-ku,Yokohama,241-0022,35.474716,139.549757
30422-80300,Company Owned,6-2-1 Ishikawa,Fujisawa,252-0815,35.392771,139.4472
6186-149487,Company Owned,1-17-6 Sotokanda,Chiyoda-ku,101-0021,35.698525,139.771931
32462-138174,Company Owned,1-6-5 Kandasakumacho,Chiyoda-ku,101-0025,35.697918,139.773786
61092-289670,Company Owned,1-2 Kandaawajicho,Chiyoda-ku,101-0063,35.695721,139.76767
30230-38780,Company Owned,3-2 Kandakajicho,Chiyoda-ku,101-0045,35.69336,139.77127
49833-271405,Company Owned,4-3 Kandasurugadai,Chiyoda-ku,101-0062,35.699177,139.765044
51847-274850,Company Owned,3-24-6 Ueno,Taito-ku,110-0005,35.706721,139.773025
30002-9693,Company Owned,2-5 Kandasurugadai,Chiyoda-ku,101-0062,35.700155,139.761877
30096-14432,Company Owned,2-5-5 Kandaogawamachi,Chiyoda-ku,101-0052,35.694227,139.762954
30587-98383,Company Owned,3-1-3 Hongo,Bunkyo-ku,113-8431,35.702072,139.762314
30323-64262,Company Owned,6-2-1 Ueno,Taito-ku,110-0005,35.707876,139.775608
57149-290120,Company Owned,3-2-1 Nihonbashimuromachi,Chuo-ku,103-0022,35.687802,139.772533
20618-197787,Licensed,1-9-7 Otemachi,Chiyoda-ku,100-8109,35.68799,139.765812
30046-11599,Company Owned,2-4-5 Nihonbashihoncho,Chuo-ku,103-0023,35.68717,139.775314
60464-293432,Company Owned,2-7 Kandajinbocho,Chiyoda-ku,101-0051,35.695386,139.757864
55288-280046,Company Owned,2-3-1 Otemachi,Chiyoda-ku,100-0004,35.68698,139.767031
30101-18602,Company Owned,1-8-1 Otemachi,Chiyoda-ku,100-0004,35.687719,139.764429
1824-138169,Company Owned,1-3-1 Otemachi,Chiyoda-ku,100-6801,35.688465,139.762993
30402-72844,Company Owned,1-7-2 Otemachi,Chiyoda-ku,100-0004,35.687118,139.765306
30207-27697,Company Owned,6-15-1 Ueno,Taito-ku,110-0005,35.711189,139.775935
30022-11535,Company Owned,4-1-4 Hongo,Bunkyo-ku,113-0033,35.707945,139.760763
30408-80342,Company Owned,1-6-1 Otemachi,Chiyoda-ku,100-0004,35.686414,139.764899
30017-9923,Company Owned,3-6-7 Nihonbashiningyocho,Chuo-ku,103-0013,35.687091,139.78134
30050-11638,Company Owned,1-7-1 Nihonbashimuromachi,Chuo-ku,103-0022,35.684758,139.77481
30070-12772,Company Owned,1-1-1. Hitotsubashi,Chiyoda-ku,100-0003,35.691163,139.757295
30330-68643,Company Owned,7-1-1 Ueno,Taito-ku,110-0005,35.712136,139.776615
30431-81983,Company Owned,2-2-1 Otemachi,Chiyoda-ku,100-0004,35.684664,139.767058
32400-137539,Company Owned,1-3-61 Koraku,Bunkyo-ku,112-8575,35.70299,139.754816
31643-115274,Company Owned,1-7-12 Marunouchi,Chiyoda-ku,100-0005,35.683723,139.768556
30444-81172,Company Owned,1-9-1 Marunouchi,Chiyoda-ku,100-0005,35.683317,139.769023
60109-293559,Company Owned,1-6-4 Marunouchi,Chiyoda-ku,100-0005,35.683678,139.766192
65203-298647,Licensed,7-1-1 Ueno,Taito-ku,110-0005,35.714036,139.777335
30108-18601,Company Owned,1-2-1 Kudankita,Chiyoda-ku,102-0073,35.695833,139.752227
4180-294605,Licensed,1-9-1 Marunouchi,Chiyoda-ku,100-0005,35.682039,139.768625
30912-103477,Company Owned,1-13-12 Kudankita,Chiyoda-ku,102-0073,35.695659,139.751147
55267-280756,Company Owned,2-5-1 Nihonbashi,Chuo-ku,103-6105,35.681423,139.773283
31676-117284,Company Owned,1-5-1 Marunouchi,Chiyoda-ku,100-0005,35.68254,139.76431
49847-271410,Company Owned,1-9-1 Marunouchi,Chiyoda-ku,100-0005,35.681789,139.76697
17832-175845,Company Owned,8-22 Uenokoen,Taito-ku,110-0007,35.715794,139.773701
30477-81170,Company Owned,1-1-1 Kasuga,Bunkyo-ku,112-0003,35.70688,139.752714
30460-81171,Company Owned,3-10-9 Iidabashi,Chiyoda-ku,102-0072,35.701084,139.750302
67030-301742,Company Owned,3-1 Kokyogaien,Chiyoda-ku,100-0002,35.682947,139.761238
31131-105829,Company Owned,7-3-1 Hongo,Bunkyo-ku,113-8654,35.713686,139.759562
51903-280044,Company Owned,1-9-1 Marunouchi,Chiyoda-ku,100-0005,35.680493,139.768987
16213-160126,Licensed,1-9-1 Marunouchi,Chiyoda-ku,100-0005,35.680371,139.767718
58344-292507,Licensed,1-9-1 Marunouchi,Chiyoda-ku,100-0005,35.680306,139.767562
30392-74801,Company Owned,2-4-1 Marunouchi,Chiyoda-ku,100-6509,35.681014,139.764021
30139-26027,Company Owned,1-4-14 Koraku,Bunkyo-ku,112-0004,35.703488,139.749613
30003-9832,Company Owned,2-1 Yaesu,Chuo-ku,104-0028,35.679557,139.771312
30024-11538,Company Owned,2-5-2 Marunouchi,Chiyoda-ku,100-0005,35.679789,139.763546
57398-291511,Company Owned,2-7-2 Marunouchi,Chiyoda-ku,100-7001,35.679396,139.764766
30537-94655,Company Owned,5-1 Higashicho,Fussa,197-0021,35.742869,139.328107
32121-133170,Company Owned,237-3 Hirai,Hinode-machi,190-0182,35.734909,139.275544
32122-294078,Company Owned,237-3 Hirai,Hinode-machi,190-0812,35.734825,139.275041
31387-107969,Company Owned,1-1-3 Enoki,Musashimurayama,208-0022,35.746074,139.384913
56711-290640,Company Owned,1-1-3 Enoki,Musashimurayama,208-0022,35.746239,139.384516
1852-142237,Company Owned,1-11-7 Wakabacho,Tachikawa,190-0001,35.720334,139.436738
48562-263836,Company Owned,3-2-3 Enoki,Musashimurayama,208-0022,35.751071,139.38776
55432-288394,Company Owned,2-1-18 Nishikoigakubo,Kokubunji,185-0013,35.699802,139.466066
53753-277383,Company Owned,3-1-1 Honcho,Kokubunji,185-0012,35.700701,139.480132
30337-69863,Company Owned,623 Takane,Mizuho-cho,190-1203,35.784698,139.348302
32469-138173,Company Owned,6-9-4 Shinmachi,Ome,198-0024,35.794188,139.31572
22398-220728,Company Owned,6-14-29 Honcho,Koganei,184-0004,35.701001,139.507039
23190-228550,Company Owned,1746 Kaminakaimachi,Takasaki,370-0851,36.32158,139.033765
15784-159164,Company Owned,938 Niiborimachi,Maebashi,379-2143,36.329378,139.098041
31573-111625,Company Owned,2-1-1 Bunkyocho,Maebashi,371-0801,36.379047,139.078186
32082-132227,Company Owned,849-1 Gomyo,Kamisato-machi,369-0317,36.255997,139.119773
32146-133165,Company Owned,820 Gomyo,Kamisato-machi,369-0317,36.254694,139.11908
23116-225664,Company Owned,3430-6 Miyakomachi,Isesaki,372-0801,36.331133,139.159299
1393-141129,Company Owned,368 Nishiobokatacho,Isesaki,379-2224,36.338456,139.234989
55564-288390,Company Owned,952-11 Niibori,Kumagaya,360-0841,36.180584,139.326241
30289-63508,Company Owned,2-115 Tsukuba,Kumagaya,360-0037,36.139927,139.390251
31132-105828,Company Owned,2806-1 Haneo,Namegawamachi,355-0811,36.058541,139.370572
7114-148412,Company Owned,4-3 Azumacho,Higashimatsuyama,355-0048,36.005089,139.409871
31607-111634,Company Owned,1397-1 Inariyama Yamane,Hidaka,350-1241,35.921255,139.322349
27928-246965,Licensed,1-3-21 Yahata,Sakado,350-0223,35.958301,139.403058
57138-291040,Company Owned,327-6 Miyazawa,Hanno,357-0001,35.872284,139.32997
30210-48119,Company Owned,11-21 Nakamachi,Hanno,357-0038,35.850939,139.319662
12466-154664,Company Owned,3-1 Nishi 4-chome Kita 6-jo Kita-ku,Sapporo,060-0806,43.068144,141.349645
30448-76566,Company Owned,5 Kita 5-jo Nishi 2-chome Chuo-ku,Sapporo,060-0005,43.06782,141.350839
22577-222645,Company Owned,7 Kita 5-jo Nishi 5-chome Chuo-ku,Sapporo,060-0005,43.067232,141.348382
20310-204724,Company Owned,5 Kita 5-jo Nishi 2-chome Chuo-ku,Sapporo,060-0005,43.068061,141.352397
61076-293557,Company Owned,1 Kita 3-jo Nishi 3-chome Chuo-ku,Sapporo,060-0003,43.065448,141.351177
30316-68360,Company Owned,Kita 1-jo Nishi 4-chome Chuo-ku,Sapporo,060-0001,43.062971,141.351084
30357-73982,Company Owned,5 Nishi 2-chome Minami 1-jo Chuo-ku,Sapporo,060-0061,43.059114,141.35482
32429-135586,Company Owned,3 Minami 1-jo Nishi3-chome Chuo-ku,Sapporo,060-0061,43.05869,141.353522
30409-78927,Company Owned,28 Kita 8-jo Nishi 14-chome Chuo-ku,Sapporo,060-0008,43.069122,141.33233
30787-102682,Company Owned,2-20 Kita7-jo Higashi 9-chome,Sapporo,065-8518,43.071491,141.371127
31918-125766,Company Owned,Minami 1-jo Nishi 16-chome Chuo-ku,Sapporo,060-8543,43.055133,141.333418
1848-141686,Company Owned,1-1 Minami 1-jo Nishi 27-chome Chuo-ku,Sapporo,064-0801,43.054693,141.318108
23607-231684,Company Owned,5-1 Honcho 2jo 1chome Higashi-ku,Sapporo,065-0042,43.082486,141.382029
48405-255634,Company Owned,4-6 Minami 8-jo Nishi 23-chome Chuo-ku,Sapporo,064-0808,43.046892,141.324649
26854-232865,Company Owned,1-1-1 Miyagaoka Chuo-ku,Sapporo,064-0959,43.057588,141.312998
31014-105208,Licensed,1-1 Kotoni 4-jo 1-chome Nishi-ku,Sapporo,063-0814,43.082333,141.303165
15933-165124,Company Owned,2-18 Misono 3-jo 6-chome Toyohira-ku,Sapporo,062-0003,43.040575,141.389277
30481-88720,Company Owned,1-1 Higashinaebo 2-jo,Sapporo,007-0802,43.077368,141.403597
25525-241266,Company Owned,4-1-20 Nishimachiminami Nishi-ku,Sapporo,063-0062,43.07784,141.290445
59220-293429,Company Owned,1-29 Tsukisamu Higashi 3-jo 11-chome,Sapporo,062-0053,43.028914,141.410356
18785-191885,Company Owned,1-1 Hassamu 8-jo 12 Nishi-ku,Sapporo,063-8585,43.09571,141.277545
66176-300687,Company Owned,1-20 Kawashimo 5-jo 4-chome Shiroishi-ku,Sapporo,003-0865,43.053334,141.446814
48406-260026,Company Owned,6-36 Kitano 6-jo 5-chome Kiyota-ku,Sapporo,004-0866,43.016135,141.452256
31586-111627,Company Owned,3-1 Hiraoka 3-jo 5-chome Kiyota-ku,Sapporo,004-0873,42.996692,141.458323
32032-127566,Company Owned,9-7-50 Ishiyama 2jo Minami-ku,Sapporo,005-0842,42.961057,141.314874
32570-137757,Company Owned,6-1 Omagarisaiwaicho,Kitahiroshima,061-1278,42.968485,141.471212
54656-285939,Licensed,14-1 Makibacho,Ebetsu,067-0005,43.11497,141.539784
15352-156247,Company Owned,Bibi,Chitose,066-0012,42.787548,141.680133
30596-99416,Company Owned,3-1-20 Yanagimachi,Tomakomai,053-0053,42.65626,141.641391
59636-293888,Company Owned,13-2 Asahi Ogawa,Higashiura-cho,470-2102,34.979176,136.974423
30268-53660,Company Owned,13-2 Asahi Ogawa,Higashiura-cho,470-2102,34.978381,136.974505
26892-245413,Company Owned,59-1 Koita Sasamecho,Anjo,446-0073,34.979067,137.065575
51157-277379,Company Owned,1-40-8 Deguchicho,Handa,475-0903,34.90249,136.924043
6140-149486,Company Owned,1-5-9 Hyakkokucho,Anjo,446-0044,34.95295,137.077932
49444-269130,Company Owned,1-81-3 Shiroyamamachi,Hekinan,447-0037,34.893744,137.008171
61643-292666,Company Owned,27-1 Heiwa Sumiyoshicho,Toyota,473-0905,35.036432,137.122725
30600-98300,Company Owned,1-21 Tsuchihashicho,Toyota,471-0842,35.062903,137.129679
14916-147144,Licensed,7-45-1 Nanakuma Jonan-ku,Fukuoka,814-0133,33.547329,130.361528
31307-107108,Company Owned,2-10-10 Jiromaru Sawara-ku,Fukuoka,814-0165,33.552918,130.328952
51167-277385,Licensed,4-2-1 Ropponmatsu Chuo-ku,Fukuoka,810-0044,33.57743,130.377661
15275-158247,Company Owned,2-27-2 Hashimoto Nishi-ku,Fukuoka,819-0031,33.555828,130.321625
61520-295984,Company Owned,1-2-1 Yanagochi Minami-ku,Fukuoka,815-0063,33.553382,130.407015
7112-149784,Company Owned,1-8 Ohorikoen Chuo-ku,Fukuoka,810-0051,33.587074,130.378019
56166-286200,Company Owned,2-2-1 Jigyohama Chuo-ku,Fukuoka,810-0065,33.592428,130.362939
55875-289731,Licensed,2-2-1 Jigyohama Chuo-ku,Fukuoka,810-0065,33.592983,130.362662
47498-257387,Company Owned,1-7-7 Uchihama Nishi-ku,Fukuoka,819-0005,33.581298,130.323307
30325-68681,Company Owned,2-4-22 Daimyo Chuo-ku,Fukuoka,810-0041,33.588787,130.390942
30820-102808,Company Owned,1-13-25 Daimyo Chuo-ku,Fukuoka,810-0041,33.58787,130.396707
30142-294721,Company Owned,2-5-35 Tenjin Chuo-ku,Fukuoka,810-0001,33.589451,130.397905
15924-166365,Company Owned,4-9-18 Watanabe-dori Chuo-ku,Fukuoka,810-0004,33.587301,130.401252
56114-290030,Company Owned,2-2-43 Tenjin Chuo-ku,Fukuoka,810-0001,33.589158,130.398539
22578-222647,Company Owned,2-10-3 Tenjin Chuo-ku,Fukuoka,810-0001,33.589497,130.398322
24466-238103,Company Owned,2-1-1 Tenjin Chuo-ku,Fukuoka,810-0001,33.588896,130.399754
31502-110089,Company Owned,2-Chika 0 Tenjin Chuo-ku,Fukuoka,810-0000,33.587947,130.401206
23456-230449,Company Owned,2-11-3 Tenjin Chuo-ku,Fukuoka,810-0001,33.590074,130.39873
24054-222648,Company Owned,2-11-1 Tenjin Chuo-ku,Fukuoka,810-0001,33.590979,130.398073
19358-194607,Company Owned,4-3-8 Tenjin Chuo-ku,Fukuoka,810-0001,33.592634,130.398481
54651-288387,Company Owned,1-5-1 Ohashi Minami-ku,Fukuoka,815-0033,33.559304,130.426525
30161-26012,Company Owned,2-13-16 Odo Nishi-ku,Fukuoka,819-0001,33.595257,130.320721
30123-21605,Company Owned,1-2-22 Sumiyoshi Hakata-ku,Fukuoka,812-0018,33.58975,130.411526
59034-291984,Licensed,2-8-12 Hakataekimae Hakata-ku,Fukuoka,812-0011,33.590064,130.414124
28484-248766,Company Owned,8-1 Hakataekichuogai Hakata-ku,Fukuoka,812-0012,33.587981,130.418944
58032-292195,Company Owned,3-25-21 Hakataekimae Hakata-ku,Fukuoka,812-0011,33.589508,130.417644
28483-248765,Company Owned,9-1 Hakataekichuogai Hakata-ku,Fukuoka,812-0012,33.588908,130.419206
30272-60279,Company Owned,2-1-1 Hakataekimae Hakata-Ku,Fukuoka,812-0011,33.590629,130.418451
22219-218865,Company Owned,1-1 Hakataekichuogai Hakata-ku,Fukuoka,812-0012,33.590209,130.419922
30189-23308,Company Owned,4-23 Hakataekichuogai Hakata-ku,Fukuoka,812-0012,33.590579,130.421956
30922-103714,Licensed,2-6-40 Tokoji Hakata-ku,Fukuoka,816-0096,33.577248,130.435582
31633-115271,Company Owned,1-1-1 Higashihama Higashi-ku,Fukuoka,812-0055,33.611479,130.411658
50260-273740,Company Owned,739 Aoki Hakata-ku,Fukuoka,812-0851,33.584712,130.444443
65641-300115,Company Owned,5-250-2 Hoshimigaoka,Kasuga,816-0849,33.506619,130.450466
30948-103713,Company Owned,4-6-20 Hakozaki Higashi-ku,Fukuoka,812-0053,33.619415,130.417772
55810-289668,Licensed,767-1 Shimousui Hakata-ku,Fukuoka,812-0003,33.596413,130.447997
28493-248773,Company Owned,1-71-9 Higashihirao Hakata-ku,Fukuoka,812-0853,33.589551,130.458115
31039-105206,Company Owned,1-2-1 Kitabaru Nishi-ku,Fukuoka,819-0379,33.577686,130.258357
15025-155292,Company Owned,6-14 Kasuga,Kasuga,816-0814,33.518627,130.469259
30546-94563,Company Owned,192-1 Oinoki Sakado,Kasuya-machi,811-2303,33.59704,130.480627
30789-102681,Company Owned,1-10-20 Mukaizano,Dazaifu,818-0135,33.509464,130.495057
30514-93480,Company Owned,3-12-1 Kashiihama Higashi-ku,Fukuoka,813-0016,33.657074,130.428926
15276-158248,Company Owned,3-2-43 Saifu,Dazaifu,818-0117,33.519609,130.533382
1833-138807,Company Owned,434-1 Ryumyoji,Chikushino,818-0042,33.479607,130.525082
1867-143564,Company Owned,2097-1 Kokura,Kiyama-cho,841-0201,33.440792,130.53014
15152-155192,Company Owned,2-5-15 Chuoekimae,Shingu-machi,811-0120,33.708972,130.454951
59434-292055,Company Owned,8-1 Yayoigaoka,Tosu,841-0005,33.404331,130.512496
47870-257386,Company Owned,662-5 Kuranouemachi,Tosu,841-0054,33.376011,130.498519
32123-133164,Licensed,537-1 Hondosumachi,Tosu,841-0026,33.37638,130.516826
30417-81162,Company Owned,1-1 Goryobokujo Sanrizuka,Narita,282-0011,35.763329,140.38401
54371-286615,Company Owned,1-1 Goryobokujo Sanrizuka,Narita,282 0011,35.764513,140.3832
30225-33799,Company Owned,1-1 Goryobokujo Sanrizuka,Narita,282-0011,35.765476,140.384481
50811-276409,Company Owned,1-1 Furugome,Narita,282-0004,35.772477,140.388574
30346-267791,Company Owned,1-1 Furugome,Narita,282-0004,35.773565,140.388501
58478-292381,Company Owned,1-1 Furugome,Narita,282-8601,35.774337,140.387243
58479-292196,Company Owned,1-1 Furugome,Narita,282-0004,35.774966,140.392973
30111-15633,Company Owned,24 Wing Tsuchiya,Narita,286-0021,35.795449,140.320053
31454-108695,Company Owned,532 Nanae,Tomisato,286-0221,35.750718,140.310201
50106-272985,Company Owned,3-1-8 Misatodai,Narita,286-0013,35.793068,140.310535
19119-186364,Company Owned,2-4-1 Iizumi,Shisui-machi,285-0912,35.715035,140.29251
1835-139047,Company Owned,1420-11 Sumi,Shisui-machi,285-0913,35.711571,140.285031
32395-137526,Company Owned,6-1-2 Terazakikita,Sakura,285-0819,35.713363,140.217753
28780-251164,Company Owned,1238-3 Sawaraho,Katori,287-0005,35.900936,140.489986
54896-288393,Company Owned,2-32-16 Yukarigaoka,Sakura,285-0858,35.727937,140.156662
30591-98005,Company Owned,5 Chuo,Yotsukaido,284-0003,35.666946,140.165049
60768-292384,Company Owned,5-2 Kagurominami,Inzai,270-1369,35.814096,140.133336
1865-143384,Company Owned,1-1 Wakamatsucho Wakaba-ku,Chiba,264-0021,35.639532,140.174243
26437-241031,Company Owned,3-1186-5 Izumino,Inzai,270-1360,35.804176,140.128543
66698-301267,Company Owned,1-3-1 Murakamiminami,Yachiyo,276-0029,35.722182,140.117449
30416-77960,Company Owned,1-4-1 Murakamiminami,Yachiyo,276-0029,35.721912,140.117007
8170-105203,Company Owned,3-2 Chuokita,Inzai,270-1392,35.802229,140.114075
19532-194625,Company Owned,4-1-13 Nakanedai,Ryugasaki,301-0002,35.93142,140.174867
24050-221166,Company Owned,333-10 Naganumacho Inage-ku,Chiba,263-0005,35.658374,140.119181
30590-98548,Company Owned,2-1-3 Midorigaoka,Yachiyo,276-0049,35.728735,140.072345
23745-233285,Company Owned,281-22 Hiraizumi,Kamisu,314-0146,35.915943,140.637073
50646-275509,Company Owned,1-1-1 Shinchiba Chuo-ku,Chiba,260-0031,35.612775,140.114242
30393-80323,Company Owned,15-1 Honchibamachi Chuo-ku,Chiba,260-0014,35.607532,140.118229
30228-34259,Company Owned,1001 Shinmachi Chuo-ku,Chiba,260-0028,35.611084,140.11505
30462-86123,Company Owned,1000 Shinmachi Chuo-ku,Chiba,260-0028,35.61133,140.11288
30597-288501,Company Owned,52-7 Kawasakicho Chuo-ku,Chiba,260-0835,35.588641,140.122569
32730-139748,Company Owned,2-20-1 Saiwaicho Mihama-ku,Chiba,261-0001,35.626463,140.089633
1854-142950,Company Owned,1-1-1 Oyuminominami Midori-ku,Chiba,266-0033,35.552929,140.15813
50263-273736,Company Owned,980 Hachigata,Kashima,314-0034,35.957784,140.643537
59504-291354,Company Owned,2-32-2 Chiharadaiminami,Ichihara,290-0142,35.524247,140.182346
30255-18580,Company Owned,2-5 Chuocho,Toride,302-0014,35.896661,140.063154
30188-28995,Company Owned,1-3 Hibino Mihama-ku,Chiba,261-0022,35.651688,140.044491
59393-293621,Company Owned,2-110 Hibino Mihama-ku,Chiba,261-0021,35.648799,140.041655
32078-132224,Company Owned,1-3-1 Tsudanuma,Narashino,275-0016,35.689725,140.023135
30858-102807,Company Owned,2-6-1 Nakase Mihama-ku,Chiba,261-7101,35.648526,140.039456
30048-11601,Company Owned,2-18-1 Maebaranishi,Funabashi,274-0825,35.692335,140.021868
1881-144364,Company Owned,2-7-1 Hitachinohigashi,Ushiku,300-1207,36.007859,140.163448
7068-150269,Company Owned,2-102 Hamada Mihama-ku,Chiba,261-0025,35.660145,140.030091
24374-237768,Company Owned,1-16-1 Yatsu,Narashino,275-0026,35.690038,140.018637
17060-173065,Company Owned,2-102 Hamada Mihama-ku,Chiba,261-0025,35.659647,140.028803
21127-209311,Company Owned,1-1 Toyosuna Mihama-ku,Chiba,261-8535,35.654876,140.02981
28153-249617,Company Owned,1-6-1 Oshimata,Kashiwa,277-0922,35.833242,140.012997
21126-209312,Company Owned,1-5 Toyosuna Mihama-ku,Chiba,261-8535,35.657452,140.025562
1840-139885,Company Owned,3-1-5 Shinkamagaya,Kamagaya,273-0107,35.774839,140.001106
30249-49439,Company Owned,2-1-1 Hamacho,Funabashi,273-0012,35.684705,139.992198
30151-26829,Company Owned,1-1 Suehirocho,Kashiwa,277-0842,35.862871,139.970736
21448-211564,Company Owned,1-1 Suehirocho,Kashiwa,277-0842,35.862564,139.970727
30149-26727,Company Owned,1-1-11 Kashiwa,Kashiwa,277-0005,35.861835,139.971225
31054-105572,Company Owned,2-5-25 Yutakacho,Kashiwa,277-0854,35.851852,139.961785
30551-93315,Company Owned,2-3 Oyamadai,Kashiwa,277-0837,35.882824,139.969301
50028-263457,Company Owned,1-5-1 Otakanomoriminami,Nagareyama,270-0121,35.871008,139.925447
48609-264085,Licensed,227-1 Wakashiba,Kashiwa,277-0871,35.899183,139.95359
58340-292505,Company Owned,561-1 Ichinoya,Nagareyama,270-0137,35.863877,139.919307
59315-293277,Licensed,2-8-1 Hachigasaki,Matsudo,270-0023,35.818108,139.933651
25337-240590,Company Owned,384-1 Ki,Nagareama,270-0162,35.831824,139.899389
30472-84906,Company Owned,4-1-5 Keyakidai,Moriya,302-0128,35.935044,139.997028
20311-204727,Company Owned,166 Ogashiwa,Moriya,302-0116,35.939567,139.970192
32405-240591,Company Owned,97-3 Nogisaki,Moriya,302-0117,35.939805,139.967187
62649-296170,Company Owned,4-11-3 Chuo,Misato,341-0038,35.832291,139.878615
61401-295842,Company Owned,3-249-1 Yurigaoka,Moriya,302-0110,35.94488,139.990679
55187-289017,Company Owned,3-1-1 Shinmisato Lalacity,Misato,341-0009,35.858818,139.86622
30603-99933,Company Owned,1-1-1 Piaracity,Misato,341-0050,35.843317,139.854038
30202-32680,Company Owned,1181 Matsudo,Matsudo,271-0092,35.784802,139.900494
47535-258709,Company Owned,1149-1 Matsudo,Matsudo,271-0092,35.783684,139.902128
32734-133906,Company Owned,3-1-1 Lake Town,Koshigaya,343-0828,35.882057,139.828639
32733-133908,Company Owned,3-1-1 Lake Town,Koshigaya,343-0828,35.880236,139.82799
32736-133909,Company Owned,4-2-2 Lake Town,Koshigaya,343-0828,35.880256,139.827983
32732-133907,Company Owned,3-1-1 Lake Town,Koshigaya,343-0828,35.881085,139.827807
15154-156686,Company Owned,4-1-1 Lake Town,Koshigaya,343-0828,35.88021,139.825157
30288-48079,Company Owned,6-4-2 Kanamachi,Katsushika-ku,125-0042,35.76891,139.871492
30947-103717,Company Owned,3-49-3 Kameari,Katsushika-ku,125-0061,35.76513,139.852049
30701-100744,Company Owned,2-5-25 Takasago,Soka,340-0015,35.82825,139.803534
58233-292383,Company Owned,1-1-1 Ichikawa,Ichikawa,272-0034,35.728801,139.908535
30531-94657,Company Owned,1-11-4 Minamikoshigaya,Koshigaya,343-0845,35.8756,139.790122
32200-133904,Company Owned,2-1-50 Minamikoshigaya,Koshigaya,343-8555,35.877754,139.789954
49281-267927,Company Owned,7-24-15 Minamikoiwa,Edogawa-ku,133-0056,35.733074,139.881533
58552-292759,Company Owned,1-1-1 Onitaka,Ichikawa,272-0015,35.716712,139.93315
30298-240831,Company Owned,1-1-1 Onitaka,Ichikawa,272-0015,35.716212,139.935532
17059-167984,Company Owned,1-1-8 Yamate,Funabashi,273-0045,35.712582,139.978852
26261-236164,Company Owned,4-27-7 Nishifuna,Funabashi,273-0031,35.707248,139.958838
53319-282986,Company Owned,7-1-1 Honcho,Funabashi,273 0005,35.701604,139.984651
26867-245931,Company Owned,7-1-1 Honcho,Funabashi,273-0005,35.70156,139.98572
66406-300956,Company Owned,5-3-1 Myoden,Ichikawa,272-0111,35.692912,139.927697
61273-295678,Company Owned,1-20-1 Nishiaraisakaecho,Adachi-ku,123-0843,35.774942,139.786115
30539-95059,Company Owned,42-1 Senjuasahicho,Adachi-ku,120-0026,35.750383,139.805827
32501-138163,Company Owned,42-2 Senjuasahicho,Adachi-ku,120-0026,35.750388,139.804996
22666-223526,Company Owned,3-92 Senju,Adachi-ku,120-0034,35.750821,139.804516
17061-160444,Company Owned,1-1-2 Oshiage,Sumida-ku,131-0045,35.710376,139.8119
17303-161244,Company Owned,1-1-2 Oshiage,Sumida-ku,131-0045,35.709771,139.809309
30165-15474,Company Owned,5-1-1 Kameido,Koto-ku,136-0071,35.697683,139.82649
53723-284374,Company Owned,4-1-2 Taihei,Sumida-ku,130-0012,35.700269,139.815575
30293-60319,Company Owned,1-5-1 Hanakawado,Taito-ku,111-0033,35.711986,139.797984
57144-290034,Company Owned,4-27-14 Kotobashi,Sumida-ku,130-0022,35.69659,139.815891
54754-288482,Company Owned,1-18-2 Asakusa,Taito-ku,111-0032,35.7113,139.796164
15358-156248,Company Owned,1-2-47 Kinshi,Sumida-ku,130-0013,35.697161,139.813278
30191-32960,Company Owned,2-16-7 Kaminarimon,Taito-ku,111-0034,35.71088,139.794779
30334-41120,Company Owned,3-9-10 Kotobashi,Sumida-ku,130-0022,35.695066,139.813628
9054-149488,Company Owned,2-17-1 Kitasuna,Koto-ku,136-0073,35.68277,139.825564
30490-90863,Company Owned,1-15-9 Kitasakae,Urayasu,279-0002,35.665548,139.893884
30998-104570,Company Owned,1-1-1 Irifune,Urayasu,279-0012,35.650013,139.913183
55837-289600,Company Owned,1-5-1 Irifune,Urayasu,279-0012,35.649357,139.913143
58844-293109,Company Owned,1-4 Maihama,Urayasu,279-8529,35.634856,139.885321
32401-137525,Company Owned,1-4 Maihama,Urayasu,279-8529,35.635166,139.884461
59219-293430,Company Owned,6-3-4 Rinkaicho,Edogawa-ku,134-0086,35.644697,139.860677
30182-28877,Company Owned,6-7-15 Minamisuna,Koto-ku,136-0076,35.672133,139.835524
19027-193566,Company Owned,66-1 Inaoka,Tsukuba,305-0071,36.029895,140.134391
1861-143108,Company Owned,367 Kamitakatsu,Tsuchiura,300-0811,36.080321,140.180696
30027-11541,Company Owned,2-1-1 Hamacho,Funabashi,273-0012,35.685905,139.990997
16806-170765,Company Owned,4-1-32 Sarashina,Ichihara,290-0050,35.509596,140.099855
30390-78932,Company Owned,1-403 Kosugicho Nakahara-ku,Kawasaki,211-0063,35.57749,139.659085
66023-293563,Licensed,1-383 Kosugimachi Nakahara-ku,Kawasaki,211-8533,35.578331,139.658405
17077-175844,Company Owned,3-472 Kosugimachi Nakahara-ku,Kawasaki,211-0063,35.576044,139.659301
60757-293886,Company Owned,3-1302 Shinmarukohigashi Nakahara-ku,Kawasaki,211-0004,35.575165,139.659928
66324-300844,Company Owned,3-1135-1 Shinmarukohigashi Nakahara-ku,Kawasaki,211-0004,35.573752,139.660387
31695-117705,Company Owned,1753 Shimonumabe Nakahara-ku,Kawasaki,211-8666,35.572736,139.664888
19708-194964,Company Owned,2-62-3 Denenchofu,Ota-ku,145-0071,35.597371,139.667371
30265-51579,Company Owned,2-2-3 Hiyoshi Kohoku-ku,Yokohama,223-0061,35.553783,139.646481
23273-222646,Company Owned,2-38-9 Okusawa,Setabaya-ku,158-0083,35.607339,139.671143
30162-29035,Company Owned,1-11-6 Jiyugaoka,Meguro-ku,152-0035,35.6079,139.669211
30045-11584,Company Owned,2-10-18 Jiyugaoka,Meguro-ku,152-0035,35.608732,139.667388
63750-294904,Company Owned,6-3-10 Ikegami,Ota-ku,146-0082,35.572135,139.703204
19644-194965,Company Owned,1-16-1 Tamagawa,Setagaya-ku,158-0094,35.607493,139.632477
54111-286360,Company Owned,4-3-17 Tsunashimahigashi Kohoku-ku,Yokohama,223-0052,35.5425,139.641848
24460-238096,Licensed,1-14-1 Tamagawa,Setagaya-ku,158-0094,35.611059,139.629207
32693-137765,Company Owned,1-13-1 Mizonokuchi Takatsu-ku,Kawasaki,213-0001,35.599897,139.613197
15215-150544,Company Owned,2-23-1 Tamagawa,Setagaya-ku,158-0094,35.612813,139.627459
30498-86764,Company Owned,3-17-1 Tamagawa,Setagaya-ku,158-8502,35.613322,139.626813
60110-292829,Company Owned,1-1-8 Tsunashimanishi Kohoku-ku,Yokohama,223-0053,35.536578,139.634325
30606-131171,Company Owned,7-68-1 Nishikamata,Ota-ku,144-0052,35.562454,139.715969
49742-271046,Company Owned,4-1-1 Himonya,Meguro-ku,152-0003,35.622548,139.684389
27438-247589,Company Owned,1-24-5 Komazawa,Setagaya-ku,154-0012,35.628861,139.656571
21785-215104,Company Owned,700 Morookacho Kohoku-ku,Yokohama,222-0002,35.525824,139.645734
64813-299015,Company Owned,72-1 Horikawacho Saiwai-ku,Kawasaki,212-0023,35.532875,139.694916
26568-244574,Company Owned,4-10-1 Yoga,Setagaya-ku,158-0097,35.62668,139.632997
31294-107110,Company Owned,72-1 Horikawacho Saiwai-ku,Kawasaki,212-8576,35.531796,139.695525
30033-11547,Company Owned,3-15-25 Takaban,Meguro-ku,152-0004,35.629159,139.684274
56126-290028,Company Owned,2-10-4 Sakurashinmachi,Setagaya-ku,154-0015,35.631617,139.643531
30857-102962,Company Owned,5-39-22 Seta,Setagaya-ku,158-0095,35.626397,139.626377
50647-275510,Company Owned,26-1 Ekimaehoncho Kawasaki-ku,Kawasaki,210-0007,35.531122,139.697343
1368-138648,Company Owned,26-1 Ekimaehoncho Kawasaki-ku,Kawasaki,210-0007,35.530849,139.697611
47728-259571,Company Owned,5203-1 Shinyoshidacho Kohoku-ku,Yokohama,223-0056,35.544058,139.602768
57687-290881,Company Owned,1-11 Nisshincho Kawasaki-ku,Kawasaki,210-0024,35.529746,139.696905
30098-13381,Company Owned,7 Ekimaehoncho Kawasaki-ku,Kawasaki,210-0007,35.530579,139.699295
32790-139324,Company Owned,1-6-16 Omorikita,Ota-ku,143-0016,35.589141,139.728907
30424-71721,Company Owned,4-1 Ogawacho Kawasaki-ku,Kawasaki,210-0023,35.528362,139.69805
30627-100743,Company Owned,1-2-10 Okurayama Kohoku-ku,Yokohama,222-0031,35.521627,139.630211
31709-117706,Company Owned,5-27 Suwazaka Tsurumi-ku,Yokohama,230-0014,35.514953,139.665524
54299-286566,Company Owned,2-13-4 Yutenji,Meguro-ku,153-0052,35.6377,139.691176
31651-117277,Licensed,2-4-18 Kamiyoga,Setagaya-ku,158-0098,35.639501,139.631885
30105-13423,Company Owned,4-20-25 Taishido,Setagaya-ku,154-0004,35.644435,139.669658
30984-104572,Company Owned,1-31-1 Nakagawachuo Tsuzuki-ku,Yokohama,224-0003,35.554427,139.578588
31663-117268,Company Owned,1-25-1 Nakagawachuo Tsuzuki-ku,Yokohama,224-0003,35.552102,139.579288
23764-233284,Company Owned,1-1-2 Tsurumichuo Tsurumi-ku,Yokohama,230-0051,35.507284,139.676754
30134-23001,Company Owned,2-3 Motomachi,Chigasaki,253-0043,35.331113,139.40659
50465-274848,Company Owned,929 Shobusawa,Fujisawa,252-0823,35.401267,139.44166
57484-291596,Licensed,2-19 Mitsukyo Seya-ku,Yokohama,246-0022,35.467913,139.503069
30208-34682,Company Owned,3-17-2 Shin-yokohama Kohoku-ku,Yokohama,222-0033,35.510753,139.617519
32394-137768,Licensed,2-100-45 Shinyokohama Kohoku-ku,Yokohama,222-0000,35.507819,139.617363
25219-240246,Licensed,2-100-45 Shinyokohama Kohoku-ku,Yokohama,222-0033,35.507345,139.617361
56165-289014,Company Owned,3-3-2 Haneda Airport,Ota-ku,144-0041,35.548136,139.784178
31603-111639,Company Owned,3-3-2 Haneda Airport,Ota-ku,144-0041,35.548532,139.784269
30032-11546,Company Owned,2-5-1 Shin-yokohama Kohoku-ku,Yokohama,222-0033,35.508671,139.615089
30588-96623,Licensed,3-4-2 Haneda Airport,Ota-ku,144-0041,35.554733,139.78742
60772-294311,Licensed,3-4-2 Haneda Airport,Ota-ku,144-0041,35.548751,139.790049
60752-294310,Licensed,3-4-2 Haneda Airport,Ota-ku,144-0041,35.548378,139.791074
55254-288838,Company Owned,1527-2 Imajukuhigashicho Asahi-ku,Yokohama,241-0032,35.480585,139.5345
31584-111631,Company Owned,4035-1 Ikonobecho Tsuzuki-ku,Yokohama,224-0053,35.517234,139.566443
57758-291877,Company Owned,59 Terayamacho Midori-ku,Yokohama,226-0013,35.514531,139.539529
54332-278233,Company Owned,5-1 Chigasakichuo Tsuzuki-ku,Yokohama,224-0032,35.543917,139.572987
16804-275515,Company Owned,5-1-1 Oyaminami,Ebina,243-0418,35.431928,139.398618
47950-256636,Company Owned,1-8-1 Yamatominami,Yamato,242-0016,35.469567,139.464885
21550-209310,Company Owned,2-2-8 Chuo,Ebina,243-0432,35.448372,139.39204
30351-68343,Company Owned,1-4-1 Chuo,Ebina,243-0432,35.45181,139.393334
23188-228551,Licensed,7-1 Megumicho,Ebina,243-0434,35.451202,139.386117
18928-184644,Company Owned,1-5-7 Tamura,Hiratsuka,254-0013,35.366355,139.361265
30051-114910,Company Owned,2-6-20 Nakacho,Atsugi,243-0018,35.440828,139.364572
57762-291876,Company Owned,1-1 Izumicho,Atsugi,243-0013,35.439705,139.36382
47519-251165,Company Owned,700 Amanuma,Hiratsuka,254-0031,35.337716,139.354751
30240-41179,Company Owned,1-1 Takaracho,Hiratsuka,254-0034,35.328158,139.350463
21122-209309,Company Owned,2008-1 Shimokasuya,Isehara,259-1143,35.408306,139.323986
17079-176624,Company Owned,143 Shimokasuya,Isehara,259-1193,35.407773,139.314892
32012-127586,Company Owned,560-2 Okatsukoku,Atsugi,243-0192,35.423084,139.316577
31252-106788,Company Owned,560-2 Okatsukoku,Atsugi,243-0192,35.423096,139.316176
30166-27694,Company Owned,2-1-1 Aobadai Aoba-ku,Yokohama,227-0062,35.541992,139.515809
26262-235204,Company Owned,4-5-7 Azaminominami Aoba-ku,Yokohama,225-0012,35.56057,139.541768
1819-144365,Company Owned,1-1-2 Utsukushigaoka Aoba-ku,Yokohama,225-0002,35.577258,139.558884
31832-123346,Licensed,2-7-1 Nakagawachuo Tsuzuki-ku,Yokohama,224-0003,35.550811,139.575267
15766-164744,Company Owned,12-1 Irifunecho,Hadano,257-0041,35.377799,139.228323
30152-15508,Company Owned,208 Nakazato,Odawara,250-0872,35.28451,139.185497
18267-189485,Company Owned,374-1 Iizumi,Odawara,250-0863,35.289405,139.174074
55404-289270,Licensed,1-1-1 Shiroyama,Odawara,250 0045,35.256614,139.155153
24051-225665,Company Owned,1003 Takematsu,Minamiashigara,250-0111,35.3263,139.117742
8033-149025,Company Owned,599 Kuwagi,Oyama-cho,410-1315,35.313523,138.967326
61910-296169,Company Owned,1312 Fukasawa,Gotenba,412-0023,35.306771,138.962882
8034-149024,Company Owned,1801-1 Fukazawa,Gotemba,412-0023,35.314294,138.963243
59664-292960,Company Owned,226-1 Hagiwara,Gotenba,412-0042,35.311444,138.93075
29870-253149,Company Owned,247-1 Tamagawa,Mishima,417-0048,35.109503,138.913945
60214-293165,Company Owned,10-15 Hanazonocho,Numazu,410-0065,35.121167,138.869385
51646-256928,Company Owned,4-4-22 Fuda,Chofu,182-0024,35.651895,139.544448
24677-238628,Company Owned,1-11-11 Nishiki Naka-ku,Nagoya,460-0003,35.169831,136.897031
30221-38539,Company Owned,2-18-19 Nishiki Naka-ku,Nagoya,460-0003,35.168534,136.899103
30223-38559,Company Owned,3-1-8 Sakae Naka-ku,Nagoya,460-0008,35.168442,136.903199
30440-72881,Company Owned,3-24-24 Nishiki Naka-ku,Nagoya,460-0003,35.169053,136.905895
30274-50927,Company Owned,3-20-17 Marunouchi Naka-ku,Nagoya,460-0002,35.173963,136.905938
66320-300842,Company Owned,3-15-13saki Nishiki Naka-ku,Nagoya,460-0003,35.172235,136.907141
49747-271048,Company Owned,1-4-1 Meijo Kita-ku,Nagoya,462-0846,35.18893,136.903706
51905-280047,Licensed,46-6 Higashiozonecho Higashi-ku,Nagoya,461-0022,35.19197,136.937102
60623-294903,Company Owned,40 Futakatacho Nishi-ku,Nagoya,452-0817,35.224707,136.88338
49611-270171,Licensed,2830 Shinmoriyama Moriyama-ku,Nagoya,463-0070,35.204454,136.948606
30301-65361,Company Owned,6-85-1 Nishimachi,Toyota,471-0025,35.086853,137.155019
32241-135144,Licensed,1 Toyotacho,Toyota,471-0826,35.058183,137.157922
27947-249264,Company Owned,74-1 1-choda Uwaharacho,Toyota,473-0341,35.117951,137.167601
64595-297588,Company Owned,566-1 Ikedacho Gotanda,Toyota,471-0002,35.098584,137.216845
27939-247470,Company Owned,10-4 Mutsuda Miyaishicho,Okazaki,444-2109,35.03434,137.221379
58033-292200,Licensed,2-222-1 Nishihonjicho,Seto,489-0971,35.206995,137.056627
1843-140867,Company Owned,2-9-13 Tatsuminishi,Okazaki,444-0875,34.93913,137.166986
30150-30522,Company Owned,38-5 Toyama Tosakicho,Okazaki,444-0840,34.93782,137.164265
65920-300419,Company Owned,38-5 Tosakicho Toyama,Okazaki,444-0840,34.936609,137.163804
63401-298001,Company Owned,1-1 Miaicho Tsumugiminami,Okazaki,444-0802,34.926081,137.185775
52974-281732,Company Owned,528 Hane Kamishidami Moriyama-ku,Nagoya,463-0001,35.254398,137.035298
23448-218864,Company Owned,3-23-9 Takabatacho,Nishio,445-0064,34.863815,137.059809
50098-272986,Company Owned,2-1-1 Onocho,Kasugai,486-0926,35.228832,136.962534
66520-301100,Company Owned,22 Rokkenyacho Tokyu,Kasugai,486-0842,35.258778,136.982395
55276-288480,Company Owned,9-20-15 Higashinocho,Kasugai,486-0817,35.261221,136.986618
54985-288781,Licensed,2-3 Minomachi,Kasugai,486 0917,35.239751,136.942481
18464-188504,Company Owned,3-12-4 Minamishimoharacho,Kasugai,486-0841,35.268009,136.97179
30599-99412,Company Owned,2-5 Chuodai,Kasugai,487-0011,35.283017,137.048642
65974-300151,Company Owned,7-1 Shimonagayamacho Miyashita,Toyokawa,442-0824,34.806962,137.38116
26377-231685,Company Owned,506 Nagareda Masaokacho,Toyokawa,442-0823,34.801853,137.386706
32683-138156,Company Owned,1-55 Ekimae-odori,Toyohashi,440-0888,34.762957,137.384189
65975-299311,Company Owned,53-1 Murocho Ogida,Toyohashi,441-8087,34.750418,137.375899
15600-161584,Company Owned,141 Fujisawacho,Toyohashi,441-8061,34.744805,137.371572
61309-293110,Company Owned,1-4-1 Higashiodori Chuo-ku,Niigata,950-0087,37.913726,139.061487
53752-285937,Company Owned,1-602 Hanazono Chuo-ku,Niigata,950-0086,37.91193,139.06068
32233-281392,Company Owned,5-2-19 Shichikuyama Chuo-ku,Niigata,950-0914,37.897282,139.068109
48481-263458,Company Owned,2-9-19 Meikekamiyama Chuo-ku,Niigata,950-0945,37.89272,139.028935
32044-131147,Company Owned,1-1-1 Shimohayadori-yanagida Konan-ku,Niigata,950-0150,37.876173,139.081439
51370-278228,Company Owned,"1-1-31, Wakabacho Higashi-ku",Niigata,950-0837,37.897762,139.110582
17081-171766,Company Owned,862 Matsusaki Higashi-ku,Niigata,950-0014,37.933813,139.11338
30473-83389,Company Owned,5-7-21 Koshin Nishi-ku,Niigata,950-2023,37.880716,139.003509
65972-300150,Company Owned,1-21-10 Koshinminami Nishi-ku,Niigata,950-2028,37.868476,138.988751
1873-143747,Company Owned,1206-3 Kiba Nishi-ku,Niigata,950-1122,37.823982,138.983505
30595-99417,Company Owned,5-11-5 Sumiyoshicho,Shibata,957-0061,37.942423,139.310248
58971-292667,Company Owned,9-16 Higashishinbo,Sanjo,955-0863,37.618176,138.962376
31660-117269,Company Owned,2-278 Senshu,Nagaoka,940-2093,37.460491,138.826968
30612-282989,Company Owned,1-611-1 Jonaicho,Nagaoka,940-0061,37.447827,138.853837
55740-289013,Company Owned,470-1 Kawahara Nanokamachi,Nagaoka,940-2123,37.446609,138.808824
57450-291589,Company Owned,13-8 Honamicho,Kashiwazaki,945-0822,37.360668,138.561461
15803-165125,Company Owned,195 Hiuchita,Koriyama,963-8003,37.397936,140.388586
65924-300416,Company Owned,1-12-17 Namiki,Koriyama,963-8026,37.410134,140.361494
17068-175388,Company Owned,8-2 Minamisenbo Asakamachiarai,Koriyama,963-0111,37.36959,140.371049
24943-239409,Company Owned,2-41 Tsutsumi,Koriyama,963-0205,37.397561,140.334095
65912-300112,Company Owned,632-1 Kozashimachiminamishigo,Aizuwakamatsu,965-0858,37.482831,139.899515
52756-282985,Company Owned,18 Donomae Taira,Iwaki,970-8026,37.053174,140.885481
58501-292668,Company Owned,184-7 Shionosaki,Nasushiobara,329-3122,36.966703,139.990009
26438-242425,Company Owned,9-1 Toishi Jobankamiyadamachi,Iwaki,971-8131,37.016358,140.902761
49297-267931,Company Owned,5-19 Gokencho,Nasushiobara,329-2753,36.892292,139.978649
54344-286198,Company Owned,79 Tatsumicho Onahama,Iwaki,971-8555,36.946618,140.903602
59184-292910,Company Owned,2-3232-7 Mihara,Otawara,324-0047,36.867024,140.00248
30532-93319,Company Owned,7-20-1-102 Magarikawacho,Kashihara,634-0837,34.505317,135.761753
32253-135147,Company Owned,281-4 Jinraku,Yamatotakada,635-0026,34.528222,135.743839
32461-137779,Company Owned,789-1 Kuzumotocho,Kashihara,634-0007,34.52055,135.806295
32721-138377,Company Owned,476-4 Kusurii,Kawai-cho,636-0082,34.589783,135.711822
55010-262445,Company Owned,1014-1 Ochikata,Tondabayashi,584-0058,34.487714,135.599668
30538-93478,Company Owned,517 Miyanishi Tanakacho,Yamatokoriyama,639-1028,34.641408,135.769257
21483-213084,Company Owned,741 Shimomihashicho,Yamatokoriyama,639-1101,34.650228,135.80237
58849-292957,Company Owned,2-10-11 Oka,Fujiidera,583-0027,34.573944,135.593248
54861-288609,Licensed,2-60 Hikaricho,Yao,581-0803,34.629892,135.604809
60773-292585,Licensed,1-691-1 Sanjooji,Nara,630-8013,34.682389,135.804876
31414-108431,Company Owned,2-3 Hikaricho,Yao,581-0803,34.63242,135.605823
29592-250735,Company Owned,1082 Sanjyohoncho,Nara,630-8122,34.681776,135.819773
65903-299619,Company Owned,825-1 Tako,Kawachinagano,586-0036,34.442937,135.552432
58905-293166,Company Owned,1 Taruicho,Nara,630-8218,34.681838,135.829987
54009-247468,Company Owned,76 Noboriojicho,Nara,630-8213,34.684739,135.834546
30404-76702,Company Owned,2-1-63 Saidaijihigashimachi,Nara,631-0821,34.694238,135.783357
30231-33220,Company Owned,3-1-5 Gakuenminami,Nara,631-0034,34.696872,135.75037
52389-277382,Company Owned,4-1703-1 Horensahoyama,Nara,630-8108,34.696093,135.826407
26397-236744,Company Owned,1000-1 Kamamuro Minami-ku,Sakai,590-0122,34.484155,135.515024
28927-251166,Company Owned,1-2-3 Chayamadai Minami-ku,Sakai,590-0115,34.496768,135.513312
47194-247466,Company Owned,4-2-18 Houji,Higashiosaka,577-0805,34.655834,135.590359
65461-299536,Company Owned,4-1-11 Shinkanaokacho Kita-ku,Sakai,591-8021,34.56674,135.515234
30563-96812,Company Owned,4-1-12 Higashiasakayamacho Kita-ku,Sakai,591-8008,34.583504,135.515495
62493-296583,Company Owned,3027 Shikahatacho,Ikoma,630-0115,34.725854,135.750459
26586-244575,Company Owned,3420-1 Kamimachi,Ikoma,630-0131,34.724481,135.720713
31679-117271,Company Owned,1-1-1 Saganakadai,Kizugawa,619-0223,34.725824,135.790305
30549-95837,Company Owned,1-1-1 Chodo,Higashiosaka,577-0056,34.664332,135.563459
23706-232864,Company Owned,2-3-1 Suminodo,Daito,574-0026,34.706201,135.620598
59579-293167,Company Owned,2-2-3 Kitakoyocho Sakai-ku,Sakai,590-0071,34.580472,135.485845
47529-254614,Company Owned,1-8-27 Dogashiba Tennoji-ku,Osaka,543-0033,34.658549,135.527979
65328-299653,Company Owned,1 Teppocho Sakai-ku,Sakai,590-0905,34.594341,135.48176
21551-178309,Company Owned,1-1-43 Abenosuji Abeno-ku,Osaka,545-8545,34.645592,135.514542
30598-288682,Company Owned,1-2-30 Abenosuji Abeno-ku,Osaka,545-0052,34.645319,135.513477
17067-172004,Company Owned,10-39 Hidenincho Tennoji-ku,Osaka,543-0055,34.646782,135.514481
58702-292958,Company Owned,10-39 Hideincho Tennoji-ku,Osaka,543-0055,34.646801,135.51416
65218-298547,Company Owned,1-6-1 Abenosuji Abeno-ku,Osaka,545-0052,34.644619,135.511348
25549-241532,Company Owned,10-48 Hidenincho Tennoji-ku,Osaka,543-0055,34.647717,135.513804
32392-137537,Company Owned,3-199-12 Otoriminamimachi Nishi-ku,Sakai,593-8325,34.524846,135.459047
24866-200305,Company Owned,1-41 2cho Shukuinchonishi Sakai-ku,Sakai,590-0958,34.576397,135.47031
29632-254606,Company Owned,3-22-1 Ebisujimacho Sakai-ku,Sakai,590-5985,34.581885,135.469904
53472-285648,Company Owned,4-17-1 Tsurumi Tsurumi-ku,Osaka,538-0053,34.703438,135.566091
54854-286713,Company Owned,3-9 Osakajo Chuo-ku,Osaka,540-0002,34.683055,135.5319
50812-276411,Company Owned,"3-1, Osakajo Chuo-ku",Osaka,540-0002,34.689692,135.532061
26594-242712,Company Owned,4-3-2 Suna,Shijonawate,575-0001,34.746222,135.629232
31659-115273,Company Owned,2-10-70 Nanbanaka Naniwa-ku,Osaka,556-0011,34.66178,135.501652
15360-156685,Company Owned,5-1-60 Namba Chuo-ku,Osaka,542-0076,34.66357,135.501939
55268-266829,Company Owned,5-1-60 Namba Chuo-ku,Osaka,542-0076,34.663264,135.501231
30439-83393,Company Owned,1-3-7 Shiromi Chuo-ku,Osaka,540-6301,34.69183,135.530376
30308-63921,Company Owned,12-30 Nanbasennichimae Chuo-ku,Osaka,542-0075,34.665086,135.501906
27221-246964,Company Owned,1 Sennichimae Chuo-ku,Osaka,542-0074,34.667091,135.503218
31021-105209,Company Owned,5-50-1 Misono Midori-ku,Saitama,336-8760,35.891934,139.730615
64680-298048,Company Owned,3180 Angyoryonegishi,Kawaguchi,333-0834,35.837602,139.722948
30168-26047,Company Owned,1-1-11 Maekawa,Kawaguchi,333-0842,35.832523,139.706516
50097-272984,Company Owned,1-79 Namikimotomachi,Kawaguchi,332-0033,35.806933,139.714321
1367-138159,Company Owned,18-9 Miyacho,Kawaguchi,332-0028,35.805843,139.698687
30120-13533,Company Owned,1-1-1 Akabane,Kita-ku,115-0045,35.778412,139.719984
27507-247908,Company Owned,4-15-1 Honcho,Toda,335-0023,35.80775,139.67846
30190-29057,Company Owned,1-9-5 Oji,Kita-ku,114-0002,35.754127,139.737759
63052-297676,Company Owned,2-11-1 Kaga,Itabashi-ku,173-8605,35.759027,139.713867
51685-279086,Licensed,393 Shimacho Minuma-ku,Saitama,337-0006,35.945721,139.651196
1831-138378,Company Owned,978-40 Kasaharacho,Mito,310-0852,36.338771,140.450671
21916-216185,Company Owned,303-1 Motoyoshidacho,Mito,310-0836,36.356109,140.473765
30581-225685,Company Owned,1-1-1 Miyamachi,Mito,310-0015,36.37113,140.475777
18093-182004,Company Owned,2-751-16 Himego,Mito,311-4151,36.378693,140.424719
30629-102448,Company Owned,2-1 Uchihara,Mito,319-0317,36.374547,140.359286
15343-157445,Company Owned,1059-6 Kajiyamakubo Nagatoro,Kasama,309-1712,36.310204,140.342142
15342-157444,Company Owned,1051-3 Kajiyamakubo Nagatoro,Kasama,309-1712,36.309342,140.340234
29255-253147,Company Owned,2-17-2 Saikochi,Hitachinaka,312-0058,36.416915,140.531595
31575-111630,Company Owned,542-3 Mawatari,Hitachinaka,312-0012,36.401406,140.581511
19725-202045,Company Owned,1-2-15 Sakuragawacho,Hitachi,316-0002,36.557292,140.628881
29060-218568,Licensed,2-1-1 Jonancho,Hitachi,317-0077,36.589672,140.645113
32635-136925,Company Owned,19-17 Manabeshinmachi,Tsuchiura,300-0053,36.091202,140.208326
58962-289272,Company Owned,5-1-6 Higashinamekawacho,Hitachi,317-0052,36.619182,140.677317
30428-79240,Company Owned,3-58-1 Asagayaminami,Suginami-ku,166-0004,35.704819,139.635646
51368-278230,Company Owned,2-42 Asagayaminami,Suginami-ku,166-0004,35.70503,139.637967
31833-123366,Company Owned,1-7-1 Kamiogi,Suginami-ku,167-0043,35.704665,139.620317
59201-293435,Company Owned,1-9-1 Kamiogi,Suginami-ku,167-0043,35.705007,139.61962
62105-296661,Company Owned,4-10-2 Nakano,Nakano-ku,164-0001,35.70701,139.661674
24670-238626,Company Owned,3-37-15 Hamadayama,Suginami-ku,168-0065,35.685159,139.625476
30215-45359,Company Owned,5-64-5 Nakano,Nakano-ku,164-0001,35.70685,139.665417
57499-291591,Company Owned,1-3-5 Nerima,Nerima-ku,176-0001,35.737879,139.654191
30026-11540,Company Owned,2-46-5 Matsubara,Setagaya-ku,156-0043,35.669136,139.649999
49473-256635,Company Owned,2-48-2 Honcho,Nakano-ku,164-0012,35.69704,139.682375
30553-95663,Company Owned,4-18-8 Nerima,Nerima-ku,176-0001,35.74312,139.647921
18386-181204,Company Owned,1-2-17 Minamikarasuyama,Setagaya-ku,157-0062,35.668053,139.613028
30055-11659,Company Owned,6-24-1 Nishishinjuku,Shinjuku-ku,160-0023,35.695199,139.689005
30324-69862,Company Owned,1-15-9 Kichijojihoncho,Musashino,180-0004,35.704005,139.580464
21578-193044,Company Owned,2-1-25 Kichijojiminamicho,Musashino,180-0003,35.702674,139.580097
30227-38799,Company Owned,6-14-1 Nishishinjuku,Shinjuku-ku,160-0023,35.692263,139.689594
31041-105211,Company Owned,1-1-24 Kichijojiminamicho,Musashino,180-0003,35.703116,139.579227
61639-292962,Company Owned,2-11-5 Nishishinjuku,Shinjuku-ku,160-0023,35.691447,139.690041
61714-296172,Company Owned,5-15-10 Minamikarasuyama,Setagaya-ku,157-0062,35.667783,139.601663
30039-11578,Company Owned,1-15-7 Kichijojiminamicho,Musashino,180-0003,35.700809,139.578197
56127-290033,Company Owned,1-5-1 Kichijojihoncho,Musashino,180-8520,35.703581,139.577974
30060-12104,Company Owned,2-3-1 Kichijojihoncho,Musashino,180-0004,35.705295,139.577696
32773-138809,Company Owned,2-1-1 Nishishinjuku,Shinjuku-ku,163-0413,35.691518,139.693898
30019-11532,Company Owned,2-30-6 Kitazawa,Setagaya-ku,155-0031,35.662841,139.667202
3683-143386,Company Owned,1-26-2 Nishishinjuku,Shinjuku-ku,163-0590,35.692997,139.695249
59310-291982,Company Owned,2-24-2 Kitazawa,Setagaya-ku,155-0031,35.661371,139.667012
15589-157247,Company Owned,3-8-5 Nishihara,Shibuya-ku,151-0066,35.669023,139.679795
30427-81175,Company Owned,1-6-1 Nishishinnjuku,Shinjuku-ku,163-1590,35.692254,139.697488
30197-33226,Company Owned,2-13-8 Yoyogi,Shibuya-ku,151-0053,35.686972,139.696068
31152-106236,Company Owned,1-12-1 Nishishinjuku,Shinjuku-ku,160-0023,35.689983,139.69738
60508-293567,Licensed,1-10-15 Hyakunincho,Shinjuku-ku,169-0073,35.701308,139.700053
30475-84912,Company Owned,1-30-1 Kabukicho,Shinjuku-ku,160-0021,35.694492,139.70019
62043-296582,Licensed,2-1-3 Kyodo,Setagaya-ku,156-0052,35.651346,139.636562
19709-201524,Company Owned,1-1-3 Nishishinjuku,Shinjuku-ku,160-8001,35.691239,139.699395
30360-76020,Company Owned,1-1-5 Nishishinjuku,Shinjuku-ku,160-0023,35.689028,139.699166
32015-126365,Company Owned,Subnade 1 Kabukicho 1-chome,Shinjuku-ku,160-0021,35.693902,139.701108
59635-293885,Company Owned,1-1-3 Nishishinjuku,Shinjuku-ku,160-0023,35.689526,139.699864
20861-208524,Company Owned,5-8-13 Daizawa,Setagaya-ku,155-0032,35.657127,139.667777
30124-15793,Company Owned,2-1-1 Yoyogi,Shibuya-ku,151-0053,35.686598,139.69879
31947-240830,Company Owned,3-38-1 Shinjuku,Shinjuku-ku,160-0022,35.691734,139.701114
30016-9922,Company Owned,2-2-1 Yoyogi,Shibuya-ku,151-0053,35.687911,139.70026
30226-37139,Company Owned,3-36-6 Shinjuku,Shinjuku-ku,160-0022,35.6903,139.701787
24125-281734,Licensed,3-26-14 Shinjuku,Shinjuku-ku,160-0022,35.691805,139.702351
30054-11658,Company Owned,1-35-2 Takadanobaba,Shinjuku-ku,169-0075,35.713034,139.704058
30317-67440,Company Owned,4-1-9 Shinjuku,Shinjuku-ku,160-0022,35.688867,139.702457
3679-139189,Company Owned,3-30-13 Shinjuku,Shinjuku-ku,160-0022,35.691009,139.704081
4036-145073,Company Owned,3-30-13 Shinjuku,Shinjuku-ku,160-0022,35.690854,139.704323
58876-290350,Company Owned,5-27-5 Sendagaya,Shibuya-ku,151-0051,35.686328,139.70303
32101-132229,Company Owned,1-38-7 Yoyogi,Shibuya-ku,151-0053,35.682756,139.701437
30410-78930,Company Owned,1-3-1 Futajima Wakamatsu-ku,Kitakyushu,,33.891912,130.743505
57857-291983,Licensed,3-15-1 Kurosaki Yahatanishi-ku,Kitakyushu,806-0021,33.866948,130.766144
31388-108429,Company Owned,3-2-102 Higashida Yahatahigashi-ku,Kitakyushu,805-0071,33.870212,130.811644
30467-83445,Company Owned,1-1-1 Muromachi Kokurakita-ku,Kitakyushu,803-0812,33.885495,130.875327
30450-82209,Company Owned,2-7-3 Kyomachi Kokurakita-ku,Kitakyushu,802-0002,33.885593,130.881162
54859-288608,Licensed,1-1-1 Asano Kokurakita-ku,Kitakyusyu,802 0001,33.886527,130.882301
30593-99415,Company Owned,2-1-1 Yunohara,Nogata,822-0008,33.768311,130.749856
30592-99414,Company Owned,2-14-1 Kamikuzuhara Kokuraminami-ku,Kiatakyusyu,800-0255,33.838649,130.908055
30446-83442,Company Owned,"4-4-10, Takezakicho,",Shimonoseki,0,33.949873,130.923153
19963-201731,Company Owned,2-28 Arcaport,Shimonoseki,750-0036,33.953764,130.940532
65960-300325,Company Owned,141-1 Harumachi Komori,Munakata,811-3424,33.785964,130.558042
57487-291599,Licensed,1-5-31 Nishikaigan Moji-ku,Kitakyushu,801-0841,33.945245,130.961542
16813-175387,Company Owned,3-1-1 Ikurashinmachi,Shimonoseki,751-0869,34.006798,130.934303
16530-172704,Company Owned,6-16-1 Himakino,Fukutsu,811-3208,33.754333,130.494846
55801-289669,Company Owned,3-8-1 Nishimiyaichi,Yukuhashi,824-0031,33.72055,130.967353
32526-138176,Company Owned,6-4-1 Nakagawa,Sanyoonoda,756-0806,33.985519,131.171505
65928-300114,Company Owned,1-4-53 Higashikotoshiba,Ube,755-0034,33.957313,131.256767
30267-51659,Company Owned,2-1-13 Shimoyamatedori Chuo-ku,Kobe,650-0011,34.693053,135.190961
64593-296168,Company Owned,4-2-1 Kanocho Chuo-ku,Kobe,650-0001,34.693841,135.193463
55402-289267,Company Owned,3-6-1 Sannomiyacho Chuo-ku,Kobe,650-0021,34.690177,135.190321
30294-64865,Company Owned,3-7-6 Sannomiyacho Chuo-ku,Kobe,650-0021,34.689601,135.189428
30056-11605,Company Owned,8-1-6 Miyukidori Chuo-ku,Kobe,651-0087,34.691996,135.195488
55880-289735,Company Owned,7-1-1 Kumoidori Chuo-ku,Kobe,651-0096,34.694442,135.196059
30238-49459,Company Owned,6-1-15 Kumoidori Chuo-ku,Kobe,651-0096,34.695208,135.196186
32326-137345,Company Owned,7-1-19 Isogami-dori Chuo-ku,Kobe,651-0086,34.691974,135.196731
9101-61179,Company Owned,1-2-1 Sakaemachidori Chuo-ku,Kobe,650-0023,34.687972,135.189444
1878-144135,Company Owned,3-1-31 Kitanocho Chuo-ku,Kobe,650-0002,34.699907,135.190246
49772-260425,Company Owned,2-4 Hatobacho Chuo-ku,Kobe,650-0042,34.681812,135.187929
28478-250729,Company Owned,1-6-1 Higashikawasakicho Chuo-ku,Kobe,650-0044,34.679681,135.184548
19239-197784,Company Owned,1-7-2 Higashikawasakicho Chuo-ku,Kobe,650-0044,34.679143,135.182217
17063-176924,Company Owned,3-1-1 Aioicho Chuo-ku,Kobe,650-0025,34.679895,135.178398
32403-137528,Company Owned,3-2-1 Mikagenakamachi Higashinada-ku,Kobe,658-0054,34.715665,135.255465
29932-256001,Company Owned,1-2-1 Sumiyoshihonmachi Higashinada-ku,Kobe,658-0051,34.719554,135.261402
30154-15504,Company Owned,1-2-17 Okamoto Higashinada-ku,Kobe,658-0072,34.727062,135.276754
30170-29696,Company Owned,2-2-4 Nakaochiai Suma-ku,Kobe,654-0154,34.677967,135.093598
31868-123907,Company Owned,1400-12 Ogawa Shimohatacho Tarumi-ku,Kobe,655-0861,34.66191,135.081352
61402-295838,Company Owned,1-31 Funadocho,Ashiya,659-0093,34.734784,135.307884
58236-292379,Company Owned,1-4 Gakuen Nishimachi Nishi-ku,Kobe,651-2103,34.68262,135.057544
31309-107109,Company Owned,6-7 Kurakakecho,Nishinomiya,662-0926,34.729069,135.338572
30453-84220,Company Owned,1-6 Tanakacho,Nishinomiya,662-0973,34.736701,135.339146
53466-285645,Company Owned,4-3 Koshien Takashiocho,Nishinomiya,663-8177,34.723633,135.362484
30569-95840,Company Owned,1-100 Hachibancho Koshien,Nishinomiya,663-8178,34.716771,135.364954
58235-292378,Company Owned,14-2 Takamatsucho,Nishinomiya,663-8204,34.743494,135.359624
30536-95162,Company Owned,1-2 Kitaguchicho,Nishinomiya,663-8035,34.747309,135.358266
54295-286563,Licensed,1-155 Uegaharaichibancho,Nishinomiya,662-8501,34.767498,135.346487
26161-230446,Company Owned,2-1-37 Koushienguchi,Nishinomiya,663-8113,34.738833,135.375154
63208-297839,Company Owned,8-1-1 Kozudai Kita-ku,Kobe,651-1515,34.860085,135.194232
31803-118606,Company Owned,7-3 Kouzudai Kita-ku,Kobe,651-1515,34.86182,135.192397
31585-111629,Company Owned,9-2-13 Kozudai Kita-ku,Kobe,651-1515,34.861829,135.199691
15137-154644,Company Owned,4-1-1 Ikejiri,Itami,664-0027,34.784769,135.381705
48329-256926,Company Owned,8-11-58 Nakasuji,Takarazuka,665-0874,34.814032,135.374482
50810-276410,Company Owned,1-1-10 Kaigandori Minato-ku,Osaka,552-0022,34.654845,135.428591
32255-135153,Company Owned,4-8-1 Tsukaguchihonmachi,Amagasaki,661-0001,34.761544,135.419771
29062-250734,Company Owned,1-1-1 Kamisakabe,Amagasaki,661-0979,34.751235,135.425422
60349-294586,Company Owned,1-3-1 Shioe,Amagasaki,661-0976,34.733377,135.431186
30359-64503,Company Owned,6-2-45 Shimaya Konohana-ku,Osaka,554-0024,34.66816,135.43831
30400-76920,Company Owned,1-1-1 Fujinoki,Itami,664-0847,34.782186,135.422977
32288-135904,Company Owned,1142 Yutani Kasa,Miki,673-0402,34.815902,134.981593
1851-141689,Company Owned,1067-110 Daimon Omura,Miki,673-0404,34.817501,134.979236
59515-293717,Company Owned,662-1 Fukushima,Sanda,669-1313,34.908938,135.206626
19101-191889,Company Owned,6-2-22 Kamo,Kawanishi,666-0025,34.811985,135.411502
30299-61939,Company Owned,2-28 Asahicho,Omuta,836-0807,33.036678,130.453971
63332-297948,Company Owned,3-4 Misakimachi,Omuta,836-0037,33.030678,130.428029
20446-205605,Company Owned,306-6 Fukuro Honjo-machi,Saga,840-0023,33.238747,130.298788
27805-248764,Company Owned,70-1 Yokamachi,Saga,840-0047,33.248392,130.292645
32016-131145,Company Owned,1-7-25 Nobusuma,Kurume,830-0058,33.285427,130.511066
31434-108698,Company Owned,5-14-1 Hyogokita,Saga,849-0919,33.275629,130.308176
54652-288388,Company Owned,316-2 Kamitenjinta Higashimachi,Kurume,830-0032,33.312268,130.521019
30495-90861,Company Owned,1-2-1 Shinaikawa,Kurume,839-0865,33.322208,130.537648
20445-205604,Company Owned,413-1 Higashikushihara,Kurume,830-0003,33.325635,130.522333
1859-143106,Company Owned,1197-57 Kinryu Kinryu-machi,Saga,849-0906,33.3284,130.311517
57480-291598,Licensed,3-15-30 Kasuga Nishi-ku,Kumamoto,860-0047,32.789737,130.688723
58726-291039,Company Owned,3-10 Sakuramachi Chuo-Ku,Kumamoto,860-0805,32.800266,130.703872
63756-297171,Licensed,3-15-26 Kasuga Nishi-ku,Kumamoto,860-0047,32.788932,130.688263
30349-63505,Company Owned,2-2 Kamitoricho Chuo-ku,Kumamoto,860-0845,32.803179,130.710623
29127-252566,Licensed,1-2 Anseimachi Chuo-ku,Kumamoto,860-0801,32.801895,130.709832
30412-78923,Company Owned,2-3-1 Shimotori Chuo-ku,Kumamoto,860-0807,32.79867,130.707735
21861-210706,Company Owned,3-2-33 Oe Chuo-ku,Kumamoto,862-0971,32.804188,130.725933
30579-97741,Company Owned,3-22-2 Hikarinomori,Kikuyo-cho,869-1108,32.862535,130.782703
30547-95058,Company Owned,7-39-1 Hikarinomori,Kikuyo-cho,869-1101,32.860052,130.784769
31418-107968,Company Owned,1-1-6 Kozono Higashi-ku,Kumamoto,861-8044,32.838633,130.779589
62130-296500,Company Owned,2541-1 Tsukure,Kikuyo-cho,869-1101,32.860327,130.801617
64694-298864,Company Owned,9-2-5 Obiyama Chuo-ku,Kumamoto,862-0294,32.804802,130.759812
61046-295400,Licensed,2769 Tsukure,Kikuyo-cho,869-1101,32.863138,130.812483
52074-280752,Company Owned,1-2-1 Tainoshima Minami-ku,Kumamoto,862-0965,32.771589,130.72638
30721-100396,Company Owned,2232 Nagaike Uejima,Kashimamachi,861-3106,32.737293,130.745495
51304-278010,Company Owned,277 Takeochoshowa,Takeo,843-0023,33.193383,130.027361
19121-193567,Licensed,5304-1 Takeo Takeocho,Takeo,843-0022,33.189115,130.023748
62612-297111,Licensed,1-2 Eishomachi,Isahaya,854-0072,32.851205,130.041646
31221-106789,Company Owned,25-32 Saiwaimachi,Omura,856-0836,32.901539,129.958282
57688-291512,Company Owned,1546-4 Tramicho Ichinuno,Isahaya,859-0403,32.819351,129.969219
32601-137553,Company Owned,593 Mishimamachi,Omura,856-0816,32.912596,129.921735
30608-100269,Company Owned,3-1 Tateumamachi,Yatsushiro,866-0045,32.50578,130.585667
58649-292912,Licensed,3-555 Hotarugaikenishimachi,Toyonaka,560-0036,34.790061,135.44214
30459-84911,Company Owned,3-2-1 Hotarugaikenakamachi,Toyonaka,560-0033,34.794005,135.448851
30363-76363,Company Owned,1-1 Sakaemachi,Ikeda,563-0056,34.821686,135.425567
30296-56999,Company Owned,3-4-30 Miyahara Yodogawa-ku,Osaka,532-0003,34.734166,135.496503
30686-102059,Company Owned,14-8 Toyotsucho,Suita,564-0051,34.758043,135.49559
30133-18599,Company Owned,3-3-20 Umeda Kita-ku,Osaka,530-0001,34.698958,135.491468
16726-169547,Company Owned,2-10-22 Mukaigaoka,Toyonaka,560-0053,34.809302,135.472769
19118-186464,Company Owned,4-20 Ofukamachi Kita-ku,Osaka,530-0011,34.704622,135.494993
26257-232870,Company Owned,3-1-3 Umeda Kita-ku,Osaka,530-8558,34.702595,135.494391
21783-214685,Company Owned,5-16-1 Nishinakajima Yodogawa-ku,Osaka,532-0011,34.733097,135.50005
53757-279366,Company Owned,3-1-3 Umeda Kita-ku,Osaka,530-8558,34.702767,135.49471
25029-239664,Licensed,3-1-3 Umeda Kita-ku,Osaka,530-8558,34.702688,135.494739
15656-157666,Licensed,5-16-1 Nishinakajima Yodogawa-ku,Osaka,532-0011,34.733691,135.500166
25339-240588,Company Owned,3-13-1 Chiyozaki Nishi-ku,Osaka,550-0023,34.67008,135.478334
26256-232867,Company Owned,3-1-3 Umeda Kita-ku,Osaka,530-8558,34.702978,135.495352
47528-254613,Company Owned,3-1-1 Umeda Kita-ku,Osaka,530-0001,34.701406,135.494879
60093-294306,Company Owned,1-1 Ofukacho Kita-ku,Osaka,530-0011,34.704643,135.496118
14914-151566,Company Owned,3-1-3 Umeda Kita-ku,Osaka,530-8217,34.703123,135.495955
60090-294305,Company Owned,1-1 Ofukacho Kita-ku,Osaka,530-0011,34.704939,135.496938
18778-195164,Company Owned,4-104 Akanedaira,Ishinomaki,986-0866,38.447805,141.265138
58178-291744,Company Owned,10-30 Shinbashi,Ishinomaki,986-0878,38.439884,141.287842
48546-263835,Company Owned,55-1 Yamanome-dorota,Ichinoseki,021-0055,38.937842,141.111913
26429-238805,Company Owned,1-1-3 Shinsenrihigashimachi,Toyonaka,560-0082,34.808115,135.494447
16929-169546,Company Owned,12-38 Higashiterauchicho,Toyonaka,561-0871,34.775587,135.49577
28853-249249,Company Owned,1-1-2 Tsukumodai,Suita,565-0862,34.793264,135.509615
30500-87864,Company Owned,1-7-22 Nishijuku,Minoh,562-0034,34.832654,135.489518
48279-262441,Licensed,3-10-1 Senriyamahigashi,Suita,0,34.773943,135.510921
30474-88502,Company Owned,4-2-50 Furuedai,Suita,565-0874,34.819625,135.509369
18459-178924,Company Owned,2-17-5 Yamadahigashi,Suita,565-0821,34.798454,135.526067
1842-140550,Company Owned,5-5-19 Onoharanishi,Minoh,562-0032,34.830466,135.512423
31560-111248,Company Owned,2-15 Yamadaoka,Suita,565-0871,34.819278,135.528354
25547-241534,Company Owned,2-1 Senribanpakukoen,Suita,565-0826,34.805022,135.535318
26866-245932,Company Owned,5-16-1 Nishinakajima Yodogawa-ku,Osaka,532-0011,34.734305,135.501728
30195-238807,Company Owned,"86-4, Matsugamotomachi",Ibaraki,567-0033,34.811402,135.558239
23054-227406,Licensed,2-150 Iwakuracho,Ibaraki,567-8570,34.80949,135.562687
30159-29995,Company Owned,19-19 Chayamachi Kita-ku,Osaka,530-0013,34.708194,135.498873
15366-156404,Company Owned,8-26 Chayamachi Kita-ku,Osaka,530-0013,34.7075,135.499652
29761-255189,Licensed,1-5 Tsurunocho Kita-ku,Osaka,530-0014,34.70649,135.50093
60083-294304,Company Owned,1-1 Ofukacho Kita-ku,Osaka,530-0011,34.704334,135.496891
59575-293113,Company Owned,3-25 Kakudacho Kita-ku,Osaka,530-0017,34.704783,135.500832
61274-295675,Company Owned,8-47 Kakudacho Kita-ku,Osaka,530-0017,34.703766,135.499141
66408-300955,Company Owned,5-15 Kakudacho Kita-ku,Osaka,530-0017,34.704103,135.500294
30035-11558,Company Owned,5-15 Kakutacho Kita-ku,Osaka,530-0017,34.703889,135.499886
30338-68641,Company Owned,1-13 Kagurazaka,Shinjuku-ku,162-0825,35.701987,139.743888
24053-224424,Company Owned,2-10-2 Fujimi,Chiyoda-ku,102-0071,35.699102,139.744032
49045-266827,Company Owned,2-10-2 Fujimi,Chiyoda-ku,102-0071,35.698684,139.743745
30077-12778,Company Owned,2-1 Agebacho,Shinjuku-ku,162-0824,35.702004,139.743107
16940-174304,Company Owned,1-9-2 Kagurazaka,Shinjuku-ku,162-0825,35.700389,139.742449
30112-13529,Company Owned,2 Gobancho,Chiyoda-ku,102-0076,35.69117,139.735665
30535-95309,Company Owned,5-1 Ichigayahonmuracho,Shinjuku-ku,162-8853,35.692568,139.730816
30029-11543,Company Owned,3-2-5 Kojimachi,Chiyoda-ku,102-0083,35.684264,139.739053
51426-253134,Licensed,1-1-5 Sendagi,Bunkyo-ku,113-8603,35.720854,139.75938
16189-167325,Company Owned,1-5-25 Yotsuya,Shinjuku-ku,160-0004,35.686182,139.730126
30465-86682,Company Owned,3-1-1 Okaido,Matsuyama,790-0004,33.841421,132.770518
49155-267192,Company Owned,4-4-1 Minatomachi,Matsuyama,790-0012,33.835584,132.764157
31625-111624,Company Owned,7-1-29 Minatomachi,Matsuyama,790-0012,33.835225,132.758273
53786-286004,Company Owned,1-10-12 Dogomachi,Matsuyama,790-0843,33.850332,132.784965
19731-201525,Company Owned,1-4-12 Chuo,Matsuyama,791-8015,33.854158,132.753398
25523-241265,Company Owned,3-7-28 Furukawakita,Matsuyama,790-0942,33.810428,132.765347
49064-266833,Licensed,3-1-13 Noda,Toon,791-0216,33.795125,132.833469
32593-297114,Licensed,850 Tsutsui,Masaki-cho,791-3120,33.78691,132.715287
28480-250728,Company Owned,1-1 Nigiwaihiroba,Imabari,794-0068,34.04381,132.962115
13073-156087,Company Owned,8-8 Maedacho,Niihama,792-0007,33.954131,133.268899
20221-204226,Licensed,3-1 Aoyamacho,Kure,737-0023,34.239691,132.565529
30556-95543,Company Owned,5-10 Takaramachi,Kure,737-0029,34.242457,132.555792
30525-93809,Company Owned,6-1-15 Ujinahigashi Minami-ku,Hiroshima,734-0003,34.362563,132.468531
28482-247631,Company Owned,459-2 Miyajimacho,Hatsukaichi,739-0588,34.297845,132.32057
31629-187289,Company Owned,1-2-3 Kasumi Minami-ku,Hiroshima,734-8551,34.380393,132.479179
32311-136746,Company Owned,2-224-7 Minamimachi Minami-ku,Hiroshima,734-0007,34.376183,132.46353
29752-255187,Company Owned,5661 Takayachokodani,Higashihiroshima,739-2121,34.432016,132.836686
17072-172465,Company Owned,2-3-1 Danbarahinode Minami-ku,Hiroshima,732-0818,34.386862,132.484692
30529-95646,Company Owned,2-1-1 Osu,Fuchu-cho,735-0021,34.394444,132.498965
48950-257388,Licensed,3-1-1 Matsubaracho Minami-ku,Hiroshima,732-0822,34.395829,132.47644
60116-294307,Company Owned,5-1 Ebisucho Naka-ku,Hiroshima,730-0021,34.392989,132.465147
59212-293428,Company Owned,2-1 Shintenchi Naka-ku,Hiroshima,730-0035,34.392117,132.462604
52523-282405,Company Owned,"1-2, Matsubaracho Minami-ku",Hiroshima,732-0822,34.397682,132.475952
30250-50859,Company Owned,9-1 Hondori Naka-ku,Hiroshima,730-0035,34.392315,132.461419
30279-55639,Company Owned,2-11-10 Otemachi Naka-ku,Hiroshima,730-0051,34.390444,132.455547
30232-31099,Company Owned,Kamiyacho Naka-ku,Hiroshima,730-0031,34.394025,132.457175
49704-269132,Licensed,2-1-45 Ogi Nishi-ku,Hiroshima,733-0831,34.37286,132.406865
30585-98859,Company Owned,2-26-1 Kusatsushinmachi Nishi-ku,Hiroshima,733-0834,34.373171,132.394943
26263-237766,Company Owned,2-2-1 Shimohera,Hatsukaichi,738-0023,34.34591,132.335267
1858-143104,Company Owned,293 Kamihera,Hatsukaichi,738-0026,34.365579,132.31824
52919-283604,Company Owned,4-1-1 Ishiuchihigashi Saeki-ku,Hiroshima,731-5162,34.408794,132.396564
1845-141327,Company Owned,3-2-1 Gion Asaminami-ku,Hiroshima,731-0196,34.444421,132.461408
21200-209865,Company Owned,1-4-8 Hadaminamimachi,Kochi,780-0026,33.576675,133.542085
64750-298918,Company Owned,1-4-8 Hadaminamimachi,Kochi,780-0026,33.576098,133.542332
26242-236936,Company Owned,2-2-14 Obiyamachi,Kochi,780-0841,33.560261,133.53681
31815-119925,Company Owned,1-9-39 Azonokitamachi,Kochi,781-0011,33.578818,133.553312
32080-132226,Company Owned,2-13-28 Ushioshinmachi,Kochi,780-8008,33.548711,133.550928
55869-286194,Licensed,90-1 Minamigoza,Kochi,780-0084,33.566757,133.562925
30126-13534,Company Owned,2-6-1 Tokumaru,Itabashi-ku,175-0083,35.769626,139.661078
30821-102810,Company Owned,30-1 Oyaguchikamicho,Itabashi-ku,173-0032,35.749474,139.691761
30084-144064,Company Owned,3-46-4 Shimorenjaku,Mitaka,181-0013,35.702453,139.560201
61638-294372,Company Owned,5-19-10 Shinmachi,Nishitokyo,202-0023,35.712151,139.533379
30468-81169,Company Owned,6-4-1 Roppongi,Minato-ku,106-0032,35.661606,139.729538
30469-77187,Company Owned,6-10-1 Roppongi,Minato-ku,106-0032,35.660459,139.728816
32468-138170,Company Owned,6-10-1 Roppongi,Minato-ku,106-6108,35.660406,139.728681
30136-22302,Company Owned,7-14-1 Roppongi,Minato-ku,106-0032,35.664026,139.731139
49775-269133,Company Owned,9-7-2 Akasaka,Minato-ku,107-0052,35.664906,139.730658
30604-143764,Licensed,6-11-1 Roppongi,Minato-ku,106-0032,35.658598,139.731895
21847-215665,Company Owned,1-4-5 Roppongi,Minato-ku,106-0032,35.66552,139.739346
30006-9852,Company Owned,1-12-32 Akasaka,Minato-ku,107-6090,35.667769,139.740381
30380-37179,Company Owned,5-4-27 Minamiaoyama,Minato-ku,107-0062,35.661431,139.71441
30175-33819,Company Owned,2-17-1 Akasaka,Minato-ku,107-0052,35.671263,139.739232
55273-286614,Company Owned,1-2-3 Kitaaoyama,Minato-ku,107-0061,35.673096,139.723491
32408-137346,Company Owned,5-3-1 Akasaka,Minato-ku,107-6302,35.672976,139.736699
30430-78924,Company Owned,5-14-5 Hiroo,Shibuya-ku,150-0012,35.650416,139.721804
30015-9921,Company Owned,2-26-3 Minamiaoyama,Minato-ku,107-0062,35.669975,139.717367
62133-295222,Company Owned,4-1-1 Toranomon,Minato-ku,105-6901,35.664679,139.745115
51833-267934,Company Owned,1-8-1 Akasaka,Minato-ku,107-0052,35.669896,139.742368
30100-13422,Company Owned,2-11-1 Nagatacho,Chiyoda-ku,100-0014,35.673278,139.740242
30041-11580,Company Owned,3-6-17 Kitaaoyama,Minato-ku,107-0061,35.664686,139.711618
30042-11581,Company Owned,5-10-1 Minamiaoyama,Minato-ku,107-0062,35.662804,139.711004
30074-12773,Company Owned,2-3-17 Toranomon,Minato-ku,105-0001,35.668537,139.746507
15501-162425,Company Owned,4-3-4 Jingumae,Shibuya-ku,150-0001,35.666553,139.710874
32287-136747,Company Owned,2-13-10 Nagatacho,Chiyoda-ku,100-0014,35.676078,139.738535
30127-25987,Company Owned,3-21-20 Akasaka,Minato-ku,107-0052,35.677263,139.73565
32660-135585,Company Owned,3-2-5 Kasumigaseki,Chiyoda-ku,100-6003,35.670875,139.747002
60099-290551,Company Owned,1-17-1 Toranomon,Minato-ku,105-6401,35.667574,139.750393
49505-248775,Company Owned,2-9-8 Shibuya,Shibuya-ku,150-0002,35.660562,139.707051
25524-241267,Company Owned,1-2 Kioicho,Chiyoda-ku,102-0094,35.67911,139.736851
24160-236184,Company Owned,1-18-14 Ebisu,Shibuya-ku,150-0013,35.647298,139.714656
30058-11718,Company Owned,1-1-23 Toranomon,Minato-ku,105-0001,35.670398,139.750027
57714-291043,Company Owned,4-12-10 Jinguumae,Shibuya-ku,150-0001,35.667827,139.707433
30086-14230,Company Owned,2-15-1 Shibuya,Shibuya-ku,150-0002,35.658662,139.705219
30088-15593,Company Owned,3-11-7 Shibuya,Shibuya-ku,150-0002,35.656247,139.705715
61631-294308,Company Owned,34 Shinanomachi,Shinjuku-ku,160-0016,35.680079,139.71967
17070-167326,Company Owned,4-30-3 Jingumae,Shibuya-ku,150-0001,35.668645,139.705994
30011-9917,Company Owned,"1-8-6, Jingumae",Shibuya-ku,150-0001,35.670002,139.706232
52192-278231,Company Owned,2-21-1 Shibuya,Shibuya-ku,150-8509,35.659004,139.703559
32774-136926,Company Owned,6-17-11 Jingumae,Shibuya-ku,150-0001,35.665861,139.703679
30533-94918,Company Owned,1-5-5 Ebisuminami,Shibuya-ku,150-0022,35.646674,139.710452
24270-236938,Company Owned,1-5-5 Ebisuminami,Shibuya-ku,150-0022,35.646309,139.710659
58751-292663,Company Owned,1-23-16 Shibuya,Shibuya-ku,150-0002,35.662067,139.702668
30005-9834,Company Owned,2-2-3 Uchisaiwaicho,Chiyoda-ku,100-0011,35.67027,139.754297
31650-286272,Company Owned,35 Shinanomachi,Shinjuku-ku,160-8582,35.681949,139.718573
56326-290216,Company Owned,3-21-3 Shibuya,Shibuya-ku,150-0002,35.657528,139.702544
61466-293716,Company Owned,6-20-10 Jingumae,Shibuya-ku,150-0001,35.662605,139.701946
58494-291194,Licensed,2-24-12 Shibuya,Shibuya-ku,150-6111,35.658389,139.70208
1820-144366,Company Owned,4-20-3 Ebisu,Shibuya-ku,150-6003,35.642487,139.713369
30113-20139,Company Owned,1-2-10 Ebisuminami,Shibuya-ku,150-0022,35.64606,139.707762
30242-49479,Company Owned,1-6-1 Bandai Chuo-ku,Niigata,950-0088,37.916652,139.055995
64587-297675,Company Owned,2-1 Shironomaecho,Ibaraki,567-0014,34.83664,135.575287
16818-163924,Company Owned,1-5 Masago-tamashimadai,Ibaraki,567-0850,34.799675,135.582845
31284-107111,Company Owned,1-18 Dainichi-higashimachi,Moriguchi,570-0016,34.749072,135.579661
56811-290790,Company Owned,1-1 Kawaharacho,Moriguchi,570-0038,34.735992,135.566256
32498-137784,Licensed,31-17 Korishinmachi,Neyagawa,572-0085,34.784577,135.630079
55461-289332,Company Owned,19-19 Okahigashicho,Hirakata,573-0032,34.816216,135.64846
28779-244577,Licensed,12-2 Okahigashicho,Hirakata,573-0032,34.815865,135.6498
30012-9918,Company Owned,3-11-6 Shinjuku,Shinjuku-ku,160-0022,35.69207,139.706326
60680-295076,Company Owned,3-1-24 Shinjuku,Shinjuku-ku,160-0022,35.690337,139.70548
60057-293163,Company Owned,2-5-12 Shinjuku,Shinjuku-ku,160-0022,35.689554,139.707443
60909-295244,Company Owned,11 Naitomachi,Shinjuku-ku,160-0014,35.683851,139.711306
32242-135149,Company Owned,3-39-9 Sendagaya,Shibuya-ku,151-0051,35.678105,139.705882
57407-267935,Company Owned,1-24-1 Toyama,Shinjuku-ku,162-8644,35.705793,139.717083
30171-31120,Company Owned,1-25-32 Takadanobaba,Shinjuku-ku,169-0075,35.71225,139.706625
30018-9924,Company Owned,2-14-4 Yotsuya,Shinjuku-ku,160-0004,35.687568,139.723401
61098-292760,Company Owned,1-14-30 Jingumae,Shibuya-ku,150-0001,35.670737,139.703423
32729-138162,Company Owned,1-18-22 Jingumae,Shibuya-ku,150-0001,35.669831,139.702813
66244-300765,Company Owned,1-4-1 Mejiro,Toshima-ku,171-0031,35.72108,139.706753
30476-86766,Company Owned,1-12-10 Jinnan,Shibuya-ku,150-0041,35.663567,139.701043
30137-15493,Company Owned,1-7-5 Jinnan,Shibuya-ku,150-0041,35.664048,139.699192
26972-246305,Company Owned,1-21-3 Jinnan,Shibuya-ku,150-0041,35.661461,139.700522
59316-291747,Company Owned,15-1 Udagawacho,Shibuya-ku,150-0042,35.662025,139.698784
30605-14431,Licensed,21-6 Udagawacho,Shibuya-ku,150-0042,35.659798,139.700383
30008-9914,Company Owned,2-25-6 Dogenzaka,Shibuya-ku,150-0043,35.660214,139.696567
56364-290253,Company Owned,1-2-3 Dogenzaka,Shibuya-ku,150 0043,35.657667,139.700453
30118-13424,Company Owned,1-12-3 Dogenzaka,Shibuya-ku,150-0043,35.657817,139.697761
58955-293204,Company Owned,16-15 Sarugakucho,Shibuya-ku,150-0034,35.649119,139.700115
15807-164745,Licensed,17-5 Sarugakucho,Shibuya-ku,150-0033,35.649008,139.700029
54923-288532,Company Owned,2-19-23 Aobadai,Meguro-ku,153-0042,35.649184,139.692612
30328-41180,Company Owned,3-1-3 Kamimeguro,Meguro-ku,153-0051,35.645327,139.697609
29760-255188,Licensed,1-22-10 Kamimeguro,Meguro-ku,153-0051,35.644482,139.699211
30347-70982,Company Owned,2-1-1 Kamimeguro,Meguro-ku,153-0051,35.643493,139.698495
21302-210705,Company Owned,2-27-7 Ikejiri,Setagaya-ku,154-0001,35.649159,139.683384
31866-123924,Company Owned,1-1 Idaigaoka Hasamamachi,Yufu,879-5593,33.209858,131.535035
56123-290031,Company Owned,5-1-5 Namba Chuo-ku,Osaka,542-8510,34.664285,135.500516
57409-290032,Company Owned,3-2-18 Namba Chuo-ku,Osaka,542-0076,34.666168,135.501641
59313-293112,Company Owned,1-2-3 Minatomachi Naniwa-ku,Osaka,556-0017,34.66673,135.495933
30266-55599,Company Owned,2-2-3 Nanba Chuo-ku,Osaka,542-0076,34.667605,135.499871
30803-102740,Licensed,1-8-19 Dotonbori Chuo-ku,Osaka,542-0071,34.668646,135.501444
15991-167327,Company Owned,1-6-14 Nishishinsaibashi Chuo-ku,Osaka,542-0086,34.672102,135.498692
47219-257385,Company Owned,1-4-3 Nishishinsaibashi Chuo-ku,Osaka,542-0086,34.673359,135.499905
62485-295399,Company Owned,1-8-3 Shinsaibashisuji Chuo-ku,Osaka,542-0085,34.673863,135.500974
30244-41182,Company Owned,1-1-18 Kitahorie Nishi-ku,Osaka,550-0014,34.673662,135.496893
32737-138808,Company Owned,3-chome Minamisenba Chuo-ku,Osaka,542-0081,34.675223,135.502636
59314-292758,Company Owned,7 Nagahori Chikagai,Osaka,542-0081,34.675316,135.498297
24130-235724,Company Owned,3-11-10 Minamisenba Chuo-ku,Osaka,542-0081,34.676094,135.501164
59166-292665,Company Owned,4-1-15 Kyutaromachi Chuo-ku,Osaka,541-0056,34.680602,135.500242
30443-84826,Company Owned,1-3-18 Awaza Nishi-ku,Osaka,550-0011,34.68119,135.497056
30082-12911,Company Owned,1-8-12 Honmachi Chuo-ku,Osaka,541-0053,34.683805,135.506876
30072-12692,Company Owned,4-2-12 Honmachi Chuo-ku,Osaka,541-0053,34.683435,135.500309
30103-19400,Company Owned,2-2-22 Tanimachi Chuo-ku,Osaka,540-0012,34.686339,135.517583
30602-99932,Company Owned,1-1 Tenmabashikyomachi Chuo-ku,Osaka,540-0032,34.689938,135.516958
32525-138157,Company Owned,4-1-1 Imabashi Chuo-ku,Osaka,541-0042,34.690913,135.500631
49050-266832,Company Owned,5-1-1 Kajinocho,Koganei,184-0002,35.701569,139.52456
30586-98860,Company Owned,2533 Kazahaya Hisaimyojincho,Tsu,514-1101,34.682995,136.46499
31415-108430,Company Owned,716 Fujikata,Tsu,514-0815,34.683269,136.517915
55405-289269,Company Owned,145 Takajayakomoricho,Tsu,514-0817,34.670285,136.5177
50255-273737,Company Owned,772-31 Kawaimachi,Matsusaka,515-0818,34.579327,136.518785
16242-169545,Company Owned,1223 Nakamura,Meiwa-cho,515-0343,34.581455,136.612924
15263-157904,Company Owned,538 Kogicho,Ise,516-0007,34.505886,136.722343
66322-300841,Company Owned,1850 Shijukucho,Iga,518-0823,34.747749,136.134927
62498-296923,Company Owned,37-4 Ujiimazaikecho Nakakashuraku,Ise,516-0024,34.461025,136.723262
53720-274849,Company Owned,1-1-4 Yurakucho,Chiyoda-ku,100-0006,35.673463,139.759004
30052-11639,Company Owned,7-2-22 Ginza,Chuo-ku,104-0061,35.671222,139.760326
23460-230450,Company Owned,1-10-1 Yurakucho,Chiyoda-ku,100-0006,35.67508,139.761633
30389-80324,Company Owned,1-10-1 Yurakucho,Chiyoda-ku,100-0006,35.674892,139.76202
1841-139924,Company Owned,5-1saki Ginza,Chuo-ku,104-0061,35.67277,139.762233
30204-44102,Company Owned,3-3-1 Marunouchi,Chiyoda-ku,100-0005,35.677472,139.762619
61633-294584,Company Owned,1-11-1 Yurakucho,Chiyoda-ku,100-0006,35.675705,139.762853
3677-139064,Company Owned,2-6-1 Marunouchi,Chiyoda-ku,100-6990,35.67909,139.76286
61029-295396,Company Owned,4-1-2 Ginza,Chuo-ku,104-0061,35.672845,139.763298
18721-191887,Licensed,2-9 Yurakucho,Chiyoda-ku,100-0006,35.674939,139.763603
53676-285938,Licensed,269-1 Kakogawacho-Jikemachi,Kakogawa,675-0066,34.771037,134.835216
25220-240245,Company Owned,308-1 Hojochohojo,Kasai,675-2312,34.930224,134.829032
18926-178926,Company Owned,188-1 Ekimaecho,Himeji,670-0927,34.827569,134.69027
49437-269125,Company Owned,222 Tofumachi,Himeji,670-0914,34.827099,134.688904
24474-238101,Company Owned,3-3 Miyake Shikama-ku,Himeji,672-8048,34.809157,134.680845
31574-111628,Company Owned,236 Ebisu Shikama-ku,Himeji,672-8057,34.803768,134.671406
24269-236937,Company Owned,2560 Hosoe Shikama-ku,Himeji,672-8064,34.798651,134.668715
30571-95304,Company Owned,2-5 Otsucho Otsu-ku,Himeji,671-1146,34.806674,134.606459
51155-277380,Licensed,2-28-2 Miyukidori,Shunan,745-0034,34.05127,131.803067
50464-274847,Company Owned,2405-1 Kamishinden,Ina,396-0012,35.828816,137.968959
27803-248770,Company Owned,2-47 Okahonmachi,Takayama,506-0054,36.14288,137.246996
1844-141128,Company Owned,645-1 Kakiki Shida,Kai,400-0107,35.684582,138.485416
1846-141328,Company Owned,44-2 Hasunuma Hiroomote,Akita,010-8543,39.730073,140.149327
23152-228246,Company Owned,4-5-20 Higashi-dori,Akita,010-0003,39.713049,140.143136
30464-86760,Company Owned,7-2-1 Nakadori,Akita,010-8530,39.717612,140.128671
49638-269131,Company Owned,7-1-2 Nakadori,Akita,010-0001,39.716657,140.129158
52476-277384,Company Owned,14-18 Hodono-teppomachi,Akita,010-0913,39.724783,140.108838
30610-100068,Company Owned,1-1-1 Goshonojizoden,Akita,010-1413,39.663593,140.160593
32792-137351,Company Owned,177 Tsubotate Wago,Daisen,014-0033,39.437541,140.511747
58341-292504,Company Owned,1-6-21 Jori,Yokote,013-0060,39.309343,140.556689
30345-71381,Company Owned,1-12-2 Nihonbashikayabacho,Chuo-ku,103-0025,35.67942,139.780728
30209-34681,Company Owned,3-7-3 Ginza,Chuo-ku,104-0061,35.672285,139.767596
30117-21601,Company Owned,2-4-12 Kyobashi,Chuo-ku,104-0031,35.676514,139.769564
27439-247626,Company Owned,2-2-1 Kyobashi,Chuo-ku,104-0031,35.677271,139.769667
24052-222644,Company Owned,4-4-7 Ayumino,Izumi,594-1157,34.437203,135.448047
30097-15503,Company Owned,1-2-16 Edohori Nishi-ku,Osaka,550-0002,34.691585,135.496348
32396-137535,Company Owned,639-1 Furugen,Yomitanson,904-0314,26.369597,127.746473
1341-139045,Company Owned,813-1 Kamiseido,Chatan-cho,904-0101,26.328341,127.770601
30377-78761,Company Owned,16-2 Mihama,Chatan-cho,904-0115,26.316214,127.757816
30764-100398,Company Owned,8-3 Mihama,Chatan-cho,904-0115,26.314532,127.756777
31417-108697,Company Owned,1-5-11 Mihama,Chatan-cho,904-0115,26.31374,127.760825
26383-237765,Company Owned,1 raikamu,Kitanakagusuku-son,901-2300,26.314225,127.797302
30562-96699,Company Owned,450-1 Esu,Uruma,904-2244,26.353061,127.825847
58242-289732,Company Owned,393-1 Toyohara,Uruma,904-2233,26.3437,127.854909
24048-230447,Company Owned,216-2 Ojana,Ginowan,901-2225,26.269554,127.734468
58500-290951,Company Owned,3-1-1 Irijima,Urasoe,901-2123,26.262284,127.698268
30765-102058,Company Owned,2-2-9 Toyama,Urasoe,901-2104,26.252316,127.738172
1394-137350,Company Owned,652 Kyozuka,Urasoe,901-2111,26.23769,127.722326
30861-103116,Company Owned,130 Kadekaru,Nishihara-cho,903-0102,26.224385,127.765152
30401-76360,Company Owned,4-4-9 Omoromachi,Naha,900-0006,26.225192,127.69553
17783-182485,Company Owned,1-14-13 Matsushima,Naha,902-0069,26.222719,127.704811
30374-76361,Company Owned,2-1-1 Makishi,Naha,900-0013,26.21655,127.688116
30544-94917,Company Owned,264 Miyahira,Haebaru-cho,901-1104,26.200565,127.736926
24047-230448,Company Owned,1321-1 Tsukazan,Haebaru-cho,901-1117,26.192962,127.712906
31188-291196,Licensed,150 Kagamizu,Naha,901-0142,26.206776,127.650857
30423-81164,Company Owned,5-10-2 Kanagusuku,Naha,901-0155,26.196723,127.666053
15283-158545,Company Owned,1-1192 Toyosaki,Tomigusuku,901-0225,26.158986,127.658851
60933-294585,Company Owned,3-35 Toyosaki,Tomigusuku,901-0225,26.157666,127.651116
56164-280757,Company Owned,1421-4 Yamakawa,Motobu-cho,905-0205,26.682141,127.883058
1872-143746,Company Owned,39 Makidani,Minamiechizen-cho,919-0203,35.831198,136.201366
54708-285650,Company Owned,2-7-131 Takase,Echizen,915-0832,35.900452,136.158723
28953-247630,Company Owned,1-4-19 Hanandominami,Fukui,918-8015,36.034528,136.213583
26433-241030,Company Owned,2-1717 Fuchi,Fukui,918-8026,36.046116,136.187449
19411-194626,Licensed,7-1 Funabashi Wadanakacho,Fukui,918-8503,36.046903,136.252482
17642-184165,Company Owned,3-2-11 Ninomiya,Fukui,910-0015,36.08337,136.218473
30507-93283,Company Owned,2-1230 Owada,Fukui,910-0836,36.097256,136.250822
58879-292756,Company Owned,46 Zuiojihigashi Haruecho,Sakai,919-0413,36.13439,136.224163
49639-267930,Company Owned,315 Seirokumachi,Komatsu,923-0861,36.394444,136.466371
30517-93284,Company Owned,516 Kurachi,Seki,501-3936,35.478082,136.899879
31834-125764,Company Owned,3-8 Nakakayabacho,Kakamigahara,504-0943,35.391745,136.824433
60492-290639,Company Owned,5-54 Soharamizuhocho,Kakamigahara,504-0831,35.413044,136.852653
50650-275512,Licensed,8-7 Unuma-kakamigaharacho,Kakamigahara,509-0141,35.398031,136.904548
30609-99760,Company Owned,205 Kamino Matsutakecho,Konan,483-8342,35.342501,136.854373
59727-292911,Company Owned,23-3 Kaidenishimachi,Hofu,747-0054,34.051623,131.546544
57719-290638,Company Owned,80-1 Isegikamo,Kitanagoya,481-0014,35.24263,136.883651
1862-143109,Company Owned,2709-6 Mitsui Tanyocho,Ichinomiya,491-0826,35.277839,136.846744
1863-143110,Company Owned,14-2 Shiojiri Chiakicho,Ichinomiya,491-0815,35.281498,136.854133
60776-292316,Company Owned,1-1-5 Kawanishi,Komaki,485-0045,35.285651,136.908014
61876-294519,Company Owned,1-234 Chuo,Komaki,485-0029,35.289423,136.926534
30493-90860,Company Owned,5-1 Takatsuka Minamiyamana,Fuso-cho,480-0105,35.362236,136.898775
30095-12774,Company Owned,2-4-13 Yaesu,Chuo-ku,104-0028,35.678073,139.768835
49834-271408,Company Owned,2-2-14 Ginza,Chuo-ku,104-0061,35.674236,139.76537
1821-138177,Company Owned,59-12 Shimizuarai,Showa-cho,409-3867,35.650967,138.543247
15271-155293,Company Owned,1505-1 Ikkui,Showa-cho,409-3852,35.623122,138.527134
56647-290550,Company Owned,1505-1 Ikkui,Showa-cho,409-3852,35.620933,138.526922
30580-98078,Company Owned,1122 Yamanokami,Chuo,409-3845,35.614886,138.512966
59348-293560,Company Owned,2-6-17 Sumiyoshi,Kofu,400-0851,35.636502,138.567447
31544-111250,Company Owned,1110 Shimokato,Chuo,409-3898,35.609911,138.539134
16127-165466,Company Owned,172-4 Mukomachi,Kofu,400-0813,35.648417,138.61251
55406-289271,Company Owned,5-6-1 Shinnishihara,Fujiyoshida,403-0017,35.485853,138.778789
24608-238417,Company Owned,4-14-22 Kamiyoshidahigashi,Fujiyoshida,403-0005,35.475317,138.80757
1849-141687,Company Owned,4943 Ono,Uenohara,409-0123,35.627807,139.045669
16430-162687,Company Owned,710 Notajiri,Uenohara,409-0125,35.63288,139.064007
7174-149645,Company Owned,1-8 Asamacho,Fujinomiya,418-0032,35.220968,138.611225
31456-108702,Company Owned,1348-3 Iwabuchi,Fuji,421-3305,35.15916,138.620133
29642-254607,Company Owned,68 Takashimacho,Fuji,417-0048,35.158013,138.673293
32145-133166,Company Owned,118-10 Samejima,Fuji,416-0934,35.140579,138.675167
59007-291594,Company Owned,301-3 Higashiara Higashishiiji,Numazu,410-0302,35.118645,138.840355
65730-299618,Company Owned,5-37 Minamisenacho Aoi-ku,Shizuoka,420-0915,35.002999,138.420739
56204-290112,Company Owned,43-27 Nakayoshida Suruga-ku,Shizuoka,422-8001,34.9966,138.437447
52459-274846,Company Owned,3-1-1 Kamiosaki,Shinagawa-ku,141-0021,35.633373,139.717009
21917-216184,Company Owned,2-16-9 Kamiosaki,Shinagawa-ku,141-0021,35.634297,139.715944
19106-192665,Company Owned,2-25-2 Kamiosaki,Shinagawa-ku,141-0021,35.634599,139.714206
30179-30055,Company Owned,"2-3-6, Kyonancho",Musashino,180-0023,35.701187,139.544702
26792-243445,Company Owned,2-1-2 Iguchi,Mitaka,181-0011,35.68873,139.550203
23063-227405,Company Owned,1-38-1 Kojimacho,Chofu,182-0026,35.652668,139.543684
32661-138165,Company Owned,1-17-2 Higashitabata,Kita-ku,114-0013,35.738164,139.760987
30508-93694,Company Owned,2-13-1 Kitaotsuka,Toshima-ku,170-0004,35.732304,139.728579
18616-191888,Company Owned,3-33-1 Minamiotsuka,Toshima-ku,170-0005,35.731254,139.728904
15468-157865,Company Owned,2-22-2 Neyaminami,Neyagawa,572-0855,34.7664,135.651574
29291-250733,Company Owned,1-15-10 Kouda,Hirakata,573-0073,34.776953,135.659715
30146-275516,Company Owned,2-1-38 Higashinodacho Miyakojima-ku,Osaka,534-0024,34.697397,135.532864
57858-291981,Company Owned,1-6-1 Higashinodamachi Tsushima-ku,Osaka,534-0024,34.696208,135.530606
32779-137806,Company Owned,1-55 Morimachi,Nagasaki,852-8104,32.762468,129.864614
22888-225986,Company Owned,1-1 Onouemachi,Nagasaki,850-0058,32.752035,129.871163
30365-75782,Company Owned,10-1 Motofunamachi,Nagasaki,850-0035,32.746428,129.870721
30487-91468,Company Owned,1-22 Hamanomachi,Nagasaki,850-0853,32.744043,129.877047
21498-212189,Company Owned,4-10 Shinminatomachi,Sasebo,857-0855,33.164407,129.722699
30520-94537,Company Owned,7-14 Shimanosecho,Sasebo,857-0806,33.172005,129.720717
16807-164411,Company Owned,3-1-1 Kanedahigashi,Kisarazu,292-0008,35.435152,139.935013
32771-139046,Company Owned,1-15-2 Hotaruno,Kisarazu,292-0038,35.376949,139.962204
31817-119924,Company Owned,Umihotaru Nakajimachisaki,Kisarazu,292-0071,35.463536,139.875625
30387-71741,Company Owned,3-3-3 Nakanoshima Kita-ku,Osaka,530-0005,34.693566,135.494092
30368-76573,Company Owned,1-4-12 Sonezakishinchi Kita-ku,Osaka,530-0002,34.698054,135.49587
60705-295074,Company Owned,1-13-13 Umeda Kita-ku,Osaka,530-8224,34.698689,135.499563
60706-295075,Company Owned,1-13-13 Umeda Kita-ku,Osaka,530-8224,34.698719,135.499563
30092-14970,Company Owned,1-9-20 Umeda Kita-ku,Osaka,530-0001,34.699946,135.497111
64665-298827,Company Owned,1-12-6 Umeda Kita-ku,Osaka,530-0001,34.700692,135.498486
15267-149647,Company Owned,3-1-1 Umeda Kita-ku,Osaka,530-8202,34.701513,135.496289
51129-271051,Company Owned,7-10 Nakazonocho,Yamaguchi,753-0075,34.168711,131.466127
1856-142951,Company Owned,1200 Takamigaoka,Iwata,438-0801,34.749953,137.84091
51533-278232,Company Owned,"6039-2, Mitsuke",Iwata,438-0086,34.736128,137.858583
30607-100270,Company Owned,1981-3 Suwa Tennocho Higashi-ku,Hamamatsu,435-0052,34.740295,137.763218
64770-296040,Company Owned,3000 Takao,Fukuroi,437-0023,34.739379,137.92551
25217-240248,Company Owned,1200 Kibune Hamakita-ku,Hamamatsu,434-0038,34.799095,137.778949
29763-255190,Company Owned,1 Handayama Higashi-ku,Hamamatsu,431-3125,34.772909,137.74388
19103-193565,Company Owned,682-1 Shinzucho Naka-ku,Hamamatsu,430-0911,34.720117,137.739524
31469-108701,Company Owned,6-2 Sunayamacho Naka-ku,Hamamatsu,430-0933,34.703823,137.735209
28999-252027,Licensed,6-2 Sunayamacho Naka-ku,Hamamatsu,430-0926,34.703708,137.734424
49060-266831,Licensed,6-1 Sunayamacho Naka-ku,Hamamatsu,430-0926,34.703976,137.734092
53745-285567,Company Owned,100-2 Motoshirocho Naka-ku,Hamamatsu,430 0946,34.713223,137.726084
30178-31959,Company Owned,15 Kajimachi Naka-ku,Hamamatsu,430-0933,34.705121,137.729454
66002-300418,Company Owned,280-1 Saida,Kakegawa,436-0048,34.772292,137.982202
25218-240247,Company Owned,3-52-34 Sanarudai Naka-ku,Hamamatsu,432-8021,34.709692,137.697012
3692-146088,Licensed,621-1 Irinocho Nishi-ku,Hamamatsu,432-8061,34.700629,137.698859
30554-96700,Company Owned,2-37-1 Shitoro Nishi-ku,Hamamatsu,432-8069,34.69658,137.650706
31455-108700,Company Owned,61-2 Sakume Mikkabicho Kita-ku,Hamamatsu,431-1401,34.781439,137.60726
56369-289333,Company Owned,1-8-42 Takayanagicho,Fujieda,426-0041,34.8501,138.264354
62626-297108,Company Owned,6-4 Minamimatsubara Akebonocho,Toyohashi,441-8151,34.730487,137.400367
29049-231666,Company Owned,1-2 Honmachi,Fujieda,426-0018,34.874145,138.258792
60490-293436,Company Owned,2-1-1 Yagusu,Yaizu,425-0091,34.877791,138.311979
55274-286714,Company Owned,430-1 Nakahara Suruga-ku,Shizuoka,422-8058,34.958084,138.387944
29254-253128,Company Owned,1-20 Gofukucho Aoi-ku,Shizuoka,420-0031,34.975598,138.380658
30270-53579,Company Owned,2-8-9 Gofukucho Aoi-ku,Shizuoka,420-0031,34.973672,138.384335
54298-286561,Licensed,47 Kuroganecho Aoi-ku,Shizuoka,420-0851,34.971632,138.38892
31470-110090,Licensed,39-1 Kuroganecho Aoi-ku,Shizuoka,420-0851,34.971579,138.389181
30653-100506,Company Owned,1-5-1 Ishida Suruga-ku,Shizuoka,422-8042,34.958678,138.401188
18939-188485,Company Owned,1026 Yunoki Aoi-ku,Shizuoka,420-0821,34.984436,138.409181
32077-132231,Company Owned,1330 Hiraki,Toyama,930-0944,36.68142,137.259579
22691-223984,Company Owned,3-6-7 Nunosemachiminami,Toyama,939-8208,36.673548,137.201298
31962-126368,Company Owned,3-8-6 Sogawa,Toyama,930-0083,36.689623,137.213184
22272-219286,Company Owned,1-1-61 Sakuramachi,Toyama,930-0003,36.700531,137.21365
31278-107029,Company Owned,7-1-1 Motomiya,Morioka,020-0866,39.683096,141.128688
20218-204228,Company Owned,4-12-20 Kitaiioka,Morioka,020-0857,39.668325,141.134213
27389-247467,Company Owned,1-44 Moriokaekimaedori,Morioka,020-0034,39.700752,141.137435
30381-78922,Company Owned,1-11-11 Saien,Morioka,020-0024,39.701589,141.146838
30494-93079,Company Owned,4-7-1 Maegata,Morioka,020-0148,39.711315,141.099137
48563-263846,Company Owned,"96-2 18-chiwari, Kitaoniyanagi",Kitakami,024-0072,39.293762,141.100248
54116-286199,Company Owned,57-2 Haguroda Mizusawa-sakurakawa,Oshu,023-0003,39.146275,141.154943
50134-271407,Company Owned,4-48-2 Hikarigaoka,Tajimi,507-0052,35.347026,137.109339
57416-288389,Company Owned,2-116 Umetsubo,Inuyama,484-0074,35.375559,136.952301
63755-297170,Company Owned,6-1 Hiromi,Kani,509-0214,35.422659,137.063087
30620-100746,Company Owned,2-40-25 Seijo,Setagaya-ku,157-0066,35.639896,139.599042
65519-299950,Licensed,1-9-45 Funabashi,Setagaya-ku,156-0055,35.647147,139.623315
30153-20162,Company Owned,1-49-2 Sengawacho,Chofu,182-0002,35.661394,139.585779
31219-190106,Company Owned,6-20-2 Shinkawa,Mitaka,181-8611,35.677566,139.566494
30802-102739,Company Owned,2-9-1 Kitahama,Beppu,874-8558,33.279979,131.505844
59221-293427,Company Owned,2780-28 Nishinoguchimachi,Beppu,874-0931,33.281436,131.493742
58793-293040,Company Owned,2-1-4 Funaicho,Oita,870-8688,33.236479,131.607666
26254-225985,Company Owned,1-14 Kanamemachi,Oita,870-0831,33.233071,131.606786
26868-244576,Company Owned,3-2-6 Futamatamachi,Oita,870-0854,33.212383,131.596576
30183-31162,Company Owned,755-1 Kusumoto Tamazawa,Oita,870-1155,33.188212,131.581582
17522-178925,Company Owned,3-25-16 Shimogorikita,Oita,870-0952,33.230607,131.634942
30352-73986,Company Owned,2-1 Koendorinishi,Oita,870-0174,33.19569,131.656915
52837-283264,Licensed,3-4266-5 Saiwaimachi,Nobeoka,882-0053,32.59056,131.672583
23617-231665,Company Owned,3-28-14 Nishiikebukuro,Toshima-ku,171-0021,35.731231,139.707986
30355-73981,Company Owned,1-17-10 Nishiikebukuro,Toshima-ku,171-0021,35.731057,139.70877
56812-290791,Licensed,1-1-25 Nishiikebukuro,Toshima-ku,171-0021,35.730886,139.710206
16082-167324,Company Owned,1-11-1 Nishiikebukuro,Toshima-ku,171-0021,35.729267,139.709519
17073-172466,Company Owned,1-1-25 Nishiikebukuro,Toshima-ku,171-8512,35.72899,139.709789
58402-292582,Company Owned,1-11-1 Nishiikebukuro,Toshima-ku,171-0021,35.728723,139.709585
51687-279064,Company Owned,1-29-1 Minamiikebukuro,Toshima-ku,171-8532,35.730659,139.712897
30572-97742,Company Owned,1-29-1 Minamiikebukuro,Toshima-ku,171-0022,35.730143,139.712674
31989-126367,Company Owned,1-20-5 Higashiikebukuro,Toshima-ku,170-0013,35.730817,139.715442
30068-12752,Company Owned,1-18-17 Minamiikebukuro,Toshima-ku,171-0022,35.727821,139.711782
30163-29056,Company Owned,2-16-4 Minamiikebukuro,Toshima-ku,171-0022,35.727066,139.71236
30314-66741,Company Owned,3-1-1 Higashiikebukuro,Toshima-ku,170-6090,35.729829,139.718032
23153-228244,Company Owned,1-4 Tsukiji,Kisarazu,292-0835,35.365992,139.908226
57411-290552,Company Owned,1-6-35 Shinikecho,Minokamoshi,505-0031,35.452547,137.025002
30229-45339,Company Owned,2-11-1 Ekimae,Koriyama,963-8002,37.399533,140.387859
31997-126364,Company Owned,7 Tokaicho,Kagoshima,891-0115,31.527436,130.536122
32079-132225,Company Owned,2-3-5 Usuki,Kagoshima,890-0073,31.543562,130.543719
65170-299476,Company Owned,1-8-30 Yojiro,Kagoshima,890-0062,31.567059,130.56247
30557-227424,Company Owned,"1-1, Chuocho, Kagoshima",Kagoshima,890-0053,31.583779,130.542375
59507-293168,Company Owned,1-1 Chuocho,Kagoshima,890-0053,31.584229,130.542665
58198-292314,Company Owned,6-5 Gofukumachi,Kagoshima,892-0826,31.591165,130.556983
31335-107470,Company Owned,16-18 Higashisengoku-machi,Kagoshima,892-0842,31.592007,130.554712
48281-262440,Company Owned,9688-1 Yoshinocho,Kagoshima,892-0871,31.616814,130.575317
59350-293568,Licensed,8-40 Kokubunoguchihigashi,Kirishima,899-4341,31.737654,130.754527
32778-139191,Company Owned,5 Minatoirifunecho,Toyama,930-0805,36.709377,137.213623
1328-152824,Company Owned,165-1 Shimokutsuwada Fuchumachi,Toyama,939-2716,36.66274,137.171272
61448-294829,Company Owned,713-4 Kurokawa,Imizu,939-0311,36.712183,137.101747
30396-81179,Company Owned,383 Shimofusumae,Takaoka,933-0813,36.723574,137.017815
24944-239408,Company Owned,383 Shimofusumae,Takaoka,933-0813,36.724011,137.015077
25064-239831,Company Owned,972-1 Nishinakano,Oyabe,932-0035,36.689175,136.881422
1606-138380,Company Owned,Ta25 Uchihisumi,Kahoku,929-1198,36.710243,136.700036
14953-156527,Company Owned,2-394 Okuwa,Kanazawa,921-8045,36.534581,136.675911
30356-233304,Company Owned,15-1 Musashimachi,Kanazawa,920-8503,36.571535,136.655027
31361-107967,Company Owned,3-1 Horikawashinmachi,Kanazawa,920-0849,36.579444,136.649818
16882-176608,Company Owned,3-1 Horikawashinmachi,Kanazawa,920-0849,36.579264,136.649692
61463-295478,Company Owned,1-1 Kinoshinbomachi,Kanazawa,920-0858,36.578843,136.648484
61627-296039,Company Owned,1-5-3 Hirooka,Kanazawa,920-0031,36.580038,136.647836
30348-73984,Company Owned,2-1-1 Kohrinbo,Kanazawa,920-0961,36.56275,136.653327
26865-245926,Company Owned,1-429 Tomizu,Kanazawa,920-8204,36.602008,136.620519
31631-115272,Company Owned,1-46 Sanno,Nonoichi,921-8825,36.518396,136.608389
65322-299539,Company Owned,Yokoemachi,Hakusan,924-0011,36.544544,136.582126
65243-299538,Company Owned,Yokoemachi,Hakusan,924-0011,36.544527,136.582063
30485-86761,Company Owned,232-1 Koumyomachi,Hakusan,924-0817,36.516004,136.576792
31726-117707,Company Owned,916 Imaide Tsunehisa,Miyazaki,880-0916,31.881776,131.426272
60087-294309,Licensed,4-7-30 Oyodo,Miyazaki,880-0902,31.895107,131.419482
62494-295401,Licensed,2-2-22 Oimatsu,Miyazaki,880-0801,31.91484,131.430952
31265-107030,Company Owned,3-4-12 Tachibanadori-higashi,Miyazaki,880-8602,31.916135,131.423668
31419-108696,Company Owned,121-6 Aobacho,Miyazaki,880-0842,31.919582,131.435943
15931-164746,Company Owned,862-1 Eguchi Shinbeppucho,Miyzaki,880-0834,31.92279,131.45597
6105-148411,Company Owned,2194-82 Oicho,Ena,509-7201,35.454115,137.438503
57414-288481,Company Owned,3-8-41 Osashimacho Syoge,Ena,509-7203,35.446531,137.418048
30540-94875,Company Owned,2161-3 23-chome Midorimachi,Asahikawa,070-0823,43.793995,142.324974
26291-235224,Company Owned,7-2-5 Miyashitadori,Asahikawa,070-0030,43.764304,142.357972
59730-293558,Company Owned,1-1 Miyamae 2-jo 1-chome,Asahikawa,078-8392,43.761084,142.361242
62492-295537,Company Owned,4-491-2 Taisetsudori,Asahikawa,070-0010,43.777491,142.38566
31568-111246,Company Owned,1-1 Midorigaoka-higashi 2jo 1-chome,Asahikawa,078-8510,43.729829,142.38441
47076-251782,Company Owned,2-6 Toko 13-jo 6-chome,Asahikawa,078-8353,43.742635,142.407044